{"type": "FeatureCollection", "name": "RimaeBode_candidate_sites", "features": [{"type": "Feature", "geometry": {"type": "Polygon", "coordinates": [[[353.70699888245485, 11.00152617414248], [353.87504111754515, 11.00152617414248], [353.87504111754515, 11.16643382585752], [353.70699888245485, 11.16643382585752], [353.70699888245485, 11.00152617414248]]]}, "properties": {"rank": 1, "site_km": 5.0, "mean_S": 0.0015, "danger_pct": 0.0}}, {"type": "Feature", "geometry": {"type": "Polygon", "coordinates": [[[353.7052455794482, 10.25543617414248], [353.8728744205518, 10.25543617414248], [353.8728744205518, 10.42034382585752], [353.7052455794482, 10.42034382585752], [353.7052455794482, 10.25543617414248]]]}, "properties": {"rank": 2, "site_km": 5.0, "mean_S": 0.0022, "danger_pct": 0.0}}, {"type": "Feature", "geometry": {"type": "Polygon", "coordinates": [[[353.6484638100407, 10.77301617414248], [353.81637618995927, 10.77301617414248], [353.81637618995927, 10.93792382585752], [353.6484638100407, 10.93792382585752], [353.6484638100407, 10.77301617414248]]]}, "properties": {"rank": 3, "site_km": 5.0, "mean_S": 0.0022, "danger_pct": 0.0}}, {"type": "Feature", "geometry": {"type": "Polygon", "coordinates": [[[353.73057175528385, 10.49176617414248], [353.8983282447162, 10.49176617414248], [353.8983282447162, 10.65667382585752], [353.73057175528385, 10.65667382585752], [353.73057175528385, 10.49176617414248]]]}, "properties": {"rank": 4, "site_km": 5.0, "mean_S": 0.0024, "danger_pct": 0.0}}, {"type": "Feature", "geometry": {"type": "Polygon", "coordinates": [[[353.5777313006333, 12.17926617414248], [353.7464886993667, 12.17926617414248], [353.7464886993667, 12.34417382585752], [353.5777313006333, 12.34417382585752], [353.5777313006333, 12.17926617414248]]]}, "properties": {"rank": 5, "site_km": 5.0, "mean_S": 0.0027, "danger_pct": 0.0}}, {"type": "Feature", "geometry": {"type": "Polygon", "coordinates": [[[354.09745823104265, 11.54645617414248], [354.2658217689574, 11.54645617414248], [354.2658217689574, 11.71136382585752], [354.09745823104265, 11.71136382585752], [354.09745823104265, 11.54645617414248]]]}, "properties": {"rank": 6, "site_km": 5.0, "mean_S": 0.003, "danger_pct": 0.0}}, {"type": "Feature", "geometry": {"type": "Polygon", "coordinates": [[[356.7034467804684, 9.67145617414248], [356.87077321953154, 9.67145617414248], [356.87077321953154, 9.83636382585752], [356.7034467804684, 9.83636382585752], [356.7034467804684, 9.67145617414248]]]}, "properties": {"rank": 7, "site_km": 5.0, "mean_S": 0.003, "danger_pct": 0.0}}, {"type": "Feature", "geometry": {"type": "Polygon", "coordinates": [[[353.60880401052054, 12.72027617414248], [353.7779159894794, 12.72027617414248], [353.7779159894794, 12.88518382585752], [353.60880401052054, 12.88518382585752], [353.60880401052054, 12.72027617414248]]]}, "properties": {"rank": 8, "site_km": 5.0, "mean_S": 0.003, "danger_pct": 0.0}}, {"type": "Feature", "geometry": {"type": "Polygon", "coordinates": [[[354.10287729981917, 12.91754617414248], [354.27212270018083, 12.91754617414248], [354.27212270018083, 13.08245382585752], [354.10287729981917, 13.08245382585752], [354.10287729981917, 12.91754617414248]]]}, "properties": {"rank": 9, "site_km": 5.0, "mean_S": 0.0033, "danger_pct": 0.0}}, {"type": "Feature", "geometry": {"type": "Polygon", "coordinates": [[[353.9083446503428, 10.37066617414248], [354.07603534965716, 10.37066617414248], [354.07603534965716, 10.53557382585752], [353.9083446503428, 10.53557382585752], [353.9083446503428, 10.37066617414248]]]}, "properties": {"rank": 10, "site_km": 5.0, "mean_S": 0.0035, "danger_pct": 0.0}}]}