{"type": "FeatureCollection", "name": "RimaeBode_candidate_sites", "features": [{"type": "Feature", "geometry": {"type": "Polygon", "coordinates": [[[353.6776988824549, 11.00152617414248], [353.8457411175452, 11.00152617414248], [353.8457411175452, 11.16643382585752], [353.6776988824549, 11.16643382585752], [353.6776988824549, 11.00152617414248]]]}, "properties": {"rank": 1, "site_km": 5.0, "mean_S": 0.0523, "danger_pct": 0.0}}, {"type": "Feature", "geometry": {"type": "Polygon", "coordinates": [[[353.68948435792623, 10.77106617414248], [353.85739564207375, 10.77106617414248], [353.85739564207375, 10.93597382585752], [353.68948435792623, 10.93597382585752], [353.68948435792623, 10.77106617414248]]]}, "properties": {"rank": 2, "site_km": 5.0, "mean_S": 0.0548, "danger_pct": 0.0}}, {"type": "Feature", "geometry": {"type": "Polygon", "coordinates": [[[353.5313687825052, 10.42926617414248], [353.6990912174948, 10.42926617414248], [353.6990912174948, 10.59417382585752], [353.5313687825052, 10.59417382585752], [353.5313687825052, 10.42926617414248]]]}, "properties": {"rank": 3, "site_km": 5.0, "mean_S": 0.0569, "danger_pct": 0.21}}, {"type": "Feature", "geometry": {"type": "Polygon", "coordinates": [[[353.6779066225927, 10.25152617414248], [353.8455333774074, 10.25152617414248], [353.8455333774074, 10.41643382585752], [353.6779066225927, 10.41643382585752], [353.6779066225927, 10.25152617414248]]]}, "properties": {"rank": 4, "site_km": 5.0, "mean_S": 0.0656, "danger_pct": 0.0}}, {"type": "Feature", "geometry": {"type": "Polygon", "coordinates": [[[352.9158164586992, 11.55231617414248], [353.0841835413008, 11.55231617414248], [353.0841835413008, 11.71722382585752], [352.9158164586992, 11.71722382585752], [352.9158164586992, 11.55231617414248]]]}, "properties": {"rank": 5, "site_km": 5.0, "mean_S": 0.069, "danger_pct": 0.09}}, {"type": "Feature", "geometry": {"type": "Polygon", "coordinates": [[[354.351677621962, 10.47027617414248], [354.519422378038, 10.47027617414248], [354.519422378038, 10.63518382585752], [354.351677621962, 10.63518382585752], [354.351677621962, 10.47027617414248]]]}, "properties": {"rank": 6, "site_km": 5.0, "mean_S": 0.0698, "danger_pct": 0.0}}, {"type": "Feature", "geometry": {"type": "Polygon", "coordinates": [[[354.08335328983236, 12.89996617414248], [354.2525867101677, 12.89996617414248], [354.2525867101677, 13.06487382585752], [354.08335328983236, 13.06487382585752], [354.08335328983236, 12.89996617414248]]]}, "properties": {"rank": 7, "site_km": 5.0, "mean_S": 0.0707, "danger_pct": 0.0}}, {"type": "Feature", "geometry": {"type": "Polygon", "coordinates": [[[353.56589187450214, 12.54645617414248], [353.7348881254979, 12.54645617414248], [353.7348881254979, 12.71136382585752], [353.56589187450214, 12.71136382585752], [353.56589187450214, 12.54645617414248]]]}, "properties": {"rank": 8, "site_km": 5.0, "mean_S": 0.0715, "danger_pct": 0.07}}, {"type": "Feature", "geometry": {"type": "Polygon", "coordinates": [[[353.7266717552838, 10.49176617414248], [353.89442824471615, 10.49176617414248], [353.89442824471615, 10.65667382585752], [353.7266717552838, 10.65667382585752], [353.7266717552838, 10.49176617414248]]]}, "properties": {"rank": 9, "site_km": 5.0, "mean_S": 0.0716, "danger_pct": 0.0}}, {"type": "Feature", "geometry": {"type": "Polygon", "coordinates": [[[356.52764015617663, 9.77692617414248], [356.6950198438234, 9.77692617414248], [356.6950198438234, 9.94183382585752], [356.52764015617663, 9.94183382585752], [356.52764015617663, 9.77692617414248]]]}, "properties": {"rank": 10, "site_km": 5.0, "mean_S": 0.072, "danger_pct": 0.01}}]}