{"type": "FeatureCollection", "name": "RimaeBode_UNet_crater_catalogue", "crs": {"type": "name", "properties": {"name": "urn:ogc:def:crs:OGC:1.3:CRS84"}}, "features": [{"type": "Feature", "geometry": {"type": "Point", "coordinates": [356.08671, 12.96051]}, "properties": {"diam_km": 3.859, "area_px": 3335}}, {"type": "Feature", "geometry": {"type": "Point", "coordinates": [358.37518, 12.98073]}, "properties": {"diam_km": 1.638, "area_px": 601}}, {"type": "Feature", "geometry": {"type": "Point", "coordinates": [358.90866, 12.95491]}, "properties": {"diam_km": 1.654, "area_px": 613}}, {"type": "Feature", "geometry": {"type": "Point", "coordinates": [358.72771, 12.93656]}, "properties": {"diam_km": 1.247, "area_px": 348}}, {"type": "Feature", "geometry": {"type": "Point", "coordinates": [357.1341, 12.90848]}, "properties": {"diam_km": 1.214, "area_px": 330}}, {"type": "Feature", "geometry": {"type": "Point", "coordinates": [353.86284, 12.87838]}, "properties": {"diam_km": 1.722, "area_px": 664}}, {"type": "Feature", "geometry": {"type": "Point", "coordinates": [357.2304, 12.86684]}, "properties": {"diam_km": 2.151, "area_px": 1036}}, {"type": "Feature", "geometry": {"type": "Point", "coordinates": [357.86935, 12.87543]}, "properties": {"diam_km": 1.247, "area_px": 348}}, {"type": "Feature", "geometry": {"type": "Point", "coordinates": [356.23622, 12.82736]}, "properties": {"diam_km": 1.009, "area_px": 228}}, {"type": "Feature", "geometry": {"type": "Point", "coordinates": [357.10235, 12.82324]}, "properties": {"diam_km": 1.351, "area_px": 409}}, {"type": "Feature", "geometry": {"type": "Point", "coordinates": [356.82563, 12.70245]}, "properties": {"diam_km": 3.972, "area_px": 3534}}, {"type": "Feature", "geometry": {"type": "Point", "coordinates": [357.51932, 12.74436]}, "properties": {"diam_km": 1.491, "area_px": 498}}, {"type": "Feature", "geometry": {"type": "Point", "coordinates": [353.18146, 12.74275]}, "properties": {"diam_km": 1.142, "area_px": 292}}, {"type": "Feature", "geometry": {"type": "Point", "coordinates": [354.76711, 12.72779]}, "properties": {"diam_km": 1.546, "area_px": 535}}, {"type": "Feature", "geometry": {"type": "Point", "coordinates": [357.38165, 12.72111]}, "properties": {"diam_km": 1.606, "area_px": 578}}, {"type": "Feature", "geometry": {"type": "Point", "coordinates": [356.47378, 12.70129]}, "properties": {"diam_km": 1.726, "area_px": 667}}, {"type": "Feature", "geometry": {"type": "Point", "coordinates": [358.95749, 12.67148]}, "properties": {"diam_km": 2.632, "area_px": 1551}}, {"type": "Feature", "geometry": {"type": "Point", "coordinates": [357.42746, 12.65403]}, "properties": {"diam_km": 2.021, "area_px": 915}}, {"type": "Feature", "geometry": {"type": "Point", "coordinates": [356.59445, 12.65493]}, "properties": {"diam_km": 2.15, "area_px": 1035}}, {"type": "Feature", "geometry": {"type": "Point", "coordinates": [358.14029, 12.63361]}, "properties": {"diam_km": 1.422, "area_px": 453}}, {"type": "Feature", "geometry": {"type": "Point", "coordinates": [357.54654, 12.61765]}, "properties": {"diam_km": 1.138, "area_px": 290}}, {"type": "Feature", "geometry": {"type": "Point", "coordinates": [358.32647, 12.5828]}, "properties": {"diam_km": 1.077, "area_px": 260}}, {"type": "Feature", "geometry": {"type": "Point", "coordinates": [357.55322, 12.5534]}, "properties": {"diam_km": 1.23, "area_px": 339}}, {"type": "Feature", "geometry": {"type": "Point", "coordinates": [357.43872, 12.51941]}, "properties": {"diam_km": 1.092, "area_px": 267}}, {"type": "Feature", "geometry": {"type": "Point", "coordinates": [354.94496, 12.48542]}, "properties": {"diam_km": 1.069, "area_px": 256}}, {"type": "Feature", "geometry": {"type": "Point", "coordinates": [355.9755, 12.47195]}, "properties": {"diam_km": 1.688, "area_px": 638}}, {"type": "Feature", "geometry": {"type": "Point", "coordinates": [354.05235, 12.4641]}, "properties": {"diam_km": 1.819, "area_px": 741}}, {"type": "Feature", "geometry": {"type": "Point", "coordinates": [353.01775, 12.42047]}, "properties": {"diam_km": 1.567, "area_px": 550}}, {"type": "Feature", "geometry": {"type": "Point", "coordinates": [354.46537, 12.42502]}, "properties": {"diam_km": 1.36, "area_px": 414}}, {"type": "Feature", "geometry": {"type": "Point", "coordinates": [354.21657, 12.41372]}, "properties": {"diam_km": 1.308, "area_px": 383}}, {"type": "Feature", "geometry": {"type": "Point", "coordinates": [358.9638, 12.40739]}, "properties": {"diam_km": 1.132, "area_px": 287}}, {"type": "Feature", "geometry": {"type": "Point", "coordinates": [356.64028, 12.35739]}, "properties": {"diam_km": 1.733, "area_px": 673}}, {"type": "Feature", "geometry": {"type": "Point", "coordinates": [358.52434, 12.38589]}, "properties": {"diam_km": 1.623, "area_px": 590}}, {"type": "Feature", "geometry": {"type": "Point", "coordinates": [358.63194, 12.36112]}, "properties": {"diam_km": 1.487, "area_px": 495}}, {"type": "Feature", "geometry": {"type": "Point", "coordinates": [358.69351, 12.35662]}, "properties": {"diam_km": 1.271, "area_px": 362}}, {"type": "Feature", "geometry": {"type": "Point", "coordinates": [356.25935, 12.32013]}, "properties": {"diam_km": 2.667, "area_px": 1593}}, {"type": "Feature", "geometry": {"type": "Point", "coordinates": [357.52243, 12.32912]}, "properties": {"diam_km": 1.717, "area_px": 660}}, {"type": "Feature", "geometry": {"type": "Point", "coordinates": [358.47249, 12.31062]}, "properties": {"diam_km": 1.469, "area_px": 483}}, {"type": "Feature", "geometry": {"type": "Point", "coordinates": [355.23205, 12.22623]}, "properties": {"diam_km": 6.579, "area_px": 9695}}, {"type": "Feature", "geometry": {"type": "Point", "coordinates": [357.44103, 12.27244]}, "properties": {"diam_km": 1.208, "area_px": 327}}, {"type": "Feature", "geometry": {"type": "Point", "coordinates": [353.47206, 12.20918]}, "properties": {"diam_km": 4.333, "area_px": 4205}}, {"type": "Feature", "geometry": {"type": "Point", "coordinates": [356.3389, 12.23317]}, "properties": {"diam_km": 1.14, "area_px": 291}}, {"type": "Feature", "geometry": {"type": "Point", "coordinates": [357.33077, 12.1851]}, "properties": {"diam_km": 3.523, "area_px": 2780}}, {"type": "Feature", "geometry": {"type": "Point", "coordinates": [357.74992, 12.21743]}, "properties": {"diam_km": 1.077, "area_px": 260}}, {"type": "Feature", "geometry": {"type": "Point", "coordinates": [354.24323, 12.17631]}, "properties": {"diam_km": 1.992, "area_px": 889}}, {"type": "Feature", "geometry": {"type": "Point", "coordinates": [353.16786, 12.15341]}, "properties": {"diam_km": 2.363, "area_px": 1251}}, {"type": "Feature", "geometry": {"type": "Point", "coordinates": [357.63958, 12.16459]}, "properties": {"diam_km": 1.837, "area_px": 756}}, {"type": "Feature", "geometry": {"type": "Point", "coordinates": [356.62923, 12.12554]}, "properties": {"diam_km": 1.551, "area_px": 539}}, {"type": "Feature", "geometry": {"type": "Point", "coordinates": [357.8476, 12.10357]}, "properties": {"diam_km": 1.753, "area_px": 688}}, {"type": "Feature", "geometry": {"type": "Point", "coordinates": [358.94015, 12.09481]}, "properties": {"diam_km": 1.462, "area_px": 479}}, {"type": "Feature", "geometry": {"type": "Point", "coordinates": [353.72974, 12.09134]}, "properties": {"diam_km": 1.11, "area_px": 276}}, {"type": "Feature", "geometry": {"type": "Point", "coordinates": [355.97577, 12.06436]}, "properties": {"diam_km": 1.563, "area_px": 547}}, {"type": "Feature", "geometry": {"type": "Point", "coordinates": [354.08097, 12.06711]}, "properties": {"diam_km": 1.413, "area_px": 447}}, {"type": "Feature", "geometry": {"type": "Point", "coordinates": [356.32574, 12.04444]}, "properties": {"diam_km": 2.056, "area_px": 947}}, {"type": "Feature", "geometry": {"type": "Point", "coordinates": [353.59294, 12.04782]}, "properties": {"diam_km": 1.551, "area_px": 539}}, {"type": "Feature", "geometry": {"type": "Point", "coordinates": [355.81501, 11.97379]}, "properties": {"diam_km": 1.369, "area_px": 420}}, {"type": "Feature", "geometry": {"type": "Point", "coordinates": [358.36694, 11.93365]}, "properties": {"diam_km": 1.285, "area_px": 370}}, {"type": "Feature", "geometry": {"type": "Point", "coordinates": [356.83782, 11.92003]}, "properties": {"diam_km": 1.371, "area_px": 421}}, {"type": "Feature", "geometry": {"type": "Point", "coordinates": [357.16374, 11.87538]}, "properties": {"diam_km": 1.188, "area_px": 316}}, {"type": "Feature", "geometry": {"type": "Point", "coordinates": [354.25871, 11.85033]}, "properties": {"diam_km": 1.206, "area_px": 326}}, {"type": "Feature", "geometry": {"type": "Point", "coordinates": [357.45706, 11.84459]}, "properties": {"diam_km": 1.341, "area_px": 403}}, {"type": "Feature", "geometry": {"type": "Point", "coordinates": [358.17646, 11.83296]}, "properties": {"diam_km": 1.32, "area_px": 390}}, {"type": "Feature", "geometry": {"type": "Point", "coordinates": [357.26924, 11.81318]}, "properties": {"diam_km": 2.123, "area_px": 1009}}, {"type": "Feature", "geometry": {"type": "Point", "coordinates": [358.76817, 11.80872]}, "properties": {"diam_km": 1.696, "area_px": 644}}, {"type": "Feature", "geometry": {"type": "Point", "coordinates": [357.91132, 11.80124]}, "properties": {"diam_km": 1.082, "area_px": 262}}, {"type": "Feature", "geometry": {"type": "Point", "coordinates": [353.39298, 11.75318]}, "properties": {"diam_km": 1.867, "area_px": 781}}, {"type": "Feature", "geometry": {"type": "Point", "coordinates": [354.71345, 11.75955]}, "properties": {"diam_km": 1.343, "area_px": 404}}, {"type": "Feature", "geometry": {"type": "Point", "coordinates": [356.55196, 11.73443]}, "properties": {"diam_km": 1.626, "area_px": 592}}, {"type": "Feature", "geometry": {"type": "Point", "coordinates": [356.843, 11.68774]}, "properties": {"diam_km": 2.616, "area_px": 1533}}, {"type": "Feature", "geometry": {"type": "Point", "coordinates": [358.30623, 11.71977]}, "properties": {"diam_km": 1.652, "area_px": 611}}, {"type": "Feature", "geometry": {"type": "Point", "coordinates": [358.92901, 11.68318]}, "properties": {"diam_km": 1.493, "area_px": 499}}, {"type": "Feature", "geometry": {"type": "Point", "coordinates": [356.9593, 11.66948]}, "properties": {"diam_km": 1.118, "area_px": 280}}, {"type": "Feature", "geometry": {"type": "Point", "coordinates": [356.67478, 11.63094]}, "properties": {"diam_km": 2.595, "area_px": 1508}}, {"type": "Feature", "geometry": {"type": "Point", "coordinates": [358.51789, 11.64291]}, "properties": {"diam_km": 1.371, "area_px": 421}}, {"type": "Feature", "geometry": {"type": "Point", "coordinates": [357.97449, 11.63128]}, "properties": {"diam_km": 1.511, "area_px": 511}}, {"type": "Feature", "geometry": {"type": "Point", "coordinates": [354.38519, 11.62358]}, "properties": {"diam_km": 1.243, "area_px": 346}}, {"type": "Feature", "geometry": {"type": "Point", "coordinates": [358.04294, 11.54691]}, "properties": {"diam_km": 2.255, "area_px": 1139}}, {"type": "Feature", "geometry": {"type": "Point", "coordinates": [358.75436, 11.54248]}, "properties": {"diam_km": 1.578, "area_px": 558}}, {"type": "Feature", "geometry": {"type": "Point", "coordinates": [358.55295, 11.48606]}, "properties": {"diam_km": 1.022, "area_px": 234}}, {"type": "Feature", "geometry": {"type": "Point", "coordinates": [355.57924, 11.45728]}, "properties": {"diam_km": 1.071, "area_px": 257}}, {"type": "Feature", "geometry": {"type": "Point", "coordinates": [356.8417, 11.43805]}, "properties": {"diam_km": 1.648, "area_px": 608}}, {"type": "Feature", "geometry": {"type": "Point", "coordinates": [357.73548, 11.43407]}, "properties": {"diam_km": 1.259, "area_px": 355}}, {"type": "Feature", "geometry": {"type": "Point", "coordinates": [358.90436, 11.43288]}, "properties": {"diam_km": 1.225, "area_px": 336}}, {"type": "Feature", "geometry": {"type": "Point", "coordinates": [358.44118, 11.38984]}, "properties": {"diam_km": 2.143, "area_px": 1029}}, {"type": "Feature", "geometry": {"type": "Point", "coordinates": [358.20887, 11.40883]}, "properties": {"diam_km": 1.067, "area_px": 255}}, {"type": "Feature", "geometry": {"type": "Point", "coordinates": [353.46706, 11.37551]}, "properties": {"diam_km": 2.241, "area_px": 1125}}, {"type": "Feature", "geometry": {"type": "Point", "coordinates": [358.64916, 11.35426]}, "properties": {"diam_km": 1.106, "area_px": 274}}, {"type": "Feature", "geometry": {"type": "Point", "coordinates": [354.05621, 11.34088]}, "properties": {"diam_km": 1.05, "area_px": 247}}, {"type": "Feature", "geometry": {"type": "Point", "coordinates": [357.91529, 11.31682]}, "properties": {"diam_km": 1.804, "area_px": 729}}, {"type": "Feature", "geometry": {"type": "Point", "coordinates": [357.57518, 11.31092]}, "properties": {"diam_km": 1.735, "area_px": 674}}, {"type": "Feature", "geometry": {"type": "Point", "coordinates": [358.52409, 11.29857]}, "properties": {"diam_km": 2.05, "area_px": 941}}, {"type": "Feature", "geometry": {"type": "Point", "coordinates": [353.91117, 11.31428]}, "properties": {"diam_km": 1.167, "area_px": 305}}, {"type": "Feature", "geometry": {"type": "Point", "coordinates": [358.82719, 11.26322]}, "properties": {"diam_km": 3.132, "area_px": 2197}}, {"type": "Feature", "geometry": {"type": "Point", "coordinates": [357.02169, 11.25283]}, "properties": {"diam_km": 1.522, "area_px": 519}}, {"type": "Feature", "geometry": {"type": "Point", "coordinates": [355.5223, 11.24488]}, "properties": {"diam_km": 1.157, "area_px": 300}}, {"type": "Feature", "geometry": {"type": "Point", "coordinates": [353.68751, 11.2387]}, "properties": {"diam_km": 1.148, "area_px": 295}}, {"type": "Feature", "geometry": {"type": "Point", "coordinates": [357.36461, 11.15424]}, "properties": {"diam_km": 1.116, "area_px": 279}}, {"type": "Feature", "geometry": {"type": "Point", "coordinates": [355.62754, 11.11245]}, "properties": {"diam_km": 2.092, "area_px": 980}}, {"type": "Feature", "geometry": {"type": "Point", "coordinates": [357.25256, 11.11062]}, "properties": {"diam_km": 1.353, "area_px": 410}}, {"type": "Feature", "geometry": {"type": "Point", "coordinates": [354.65425, 11.081]}, "properties": {"diam_km": 1.416, "area_px": 449}}, {"type": "Feature", "geometry": {"type": "Point", "coordinates": [355.08865, 11.0818]}, "properties": {"diam_km": 1.28, "area_px": 367}}, {"type": "Feature", "geometry": {"type": "Point", "coordinates": [356.97416, 11.03221]}, "properties": {"diam_km": 1.473, "area_px": 486}}, {"type": "Feature", "geometry": {"type": "Point", "coordinates": [358.63818, 10.95911]}, "properties": {"diam_km": 1.594, "area_px": 569}}, {"type": "Feature", "geometry": {"type": "Point", "coordinates": [354.34493, 10.95497]}, "properties": {"diam_km": 1.777, "area_px": 707}}, {"type": "Feature", "geometry": {"type": "Point", "coordinates": [354.16923, 10.92863]}, "properties": {"diam_km": 1.978, "area_px": 876}}, {"type": "Feature", "geometry": {"type": "Point", "coordinates": [357.96855, 10.91449]}, "properties": {"diam_km": 1.942, "area_px": 845}}, {"type": "Feature", "geometry": {"type": "Point", "coordinates": [357.0877, 10.88232]}, "properties": {"diam_km": 1.876, "area_px": 788}}, {"type": "Feature", "geometry": {"type": "Point", "coordinates": [357.82356, 10.83279]}, "properties": {"diam_km": 1.638, "area_px": 601}}, {"type": "Feature", "geometry": {"type": "Point", "coordinates": [357.91382, 10.81011]}, "properties": {"diam_km": 2.683, "area_px": 1612}}, {"type": "Feature", "geometry": {"type": "Point", "coordinates": [358.89665, 10.80124]}, "properties": {"diam_km": 1.548, "area_px": 537}}, {"type": "Feature", "geometry": {"type": "Point", "coordinates": [358.78377, 10.79686]}, "properties": {"diam_km": 1.268, "area_px": 360}}, {"type": "Feature", "geometry": {"type": "Point", "coordinates": [358.18642, 10.76223]}, "properties": {"diam_km": 1.416, "area_px": 449}}, {"type": "Feature", "geometry": {"type": "Point", "coordinates": [357.74432, 10.7329]}, "properties": {"diam_km": 1.092, "area_px": 267}}, {"type": "Feature", "geometry": {"type": "Point", "coordinates": [355.23741, 10.71621]}, "properties": {"diam_km": 1.389, "area_px": 432}}, {"type": "Feature", "geometry": {"type": "Point", "coordinates": [353.64275, 10.67809]}, "properties": {"diam_km": 2.391, "area_px": 1280}}, {"type": "Feature", "geometry": {"type": "Point", "coordinates": [357.12564, 10.67208]}, "properties": {"diam_km": 1.86, "area_px": 775}}, {"type": "Feature", "geometry": {"type": "Point", "coordinates": [357.27066, 10.63632]}, "properties": {"diam_km": 1.225, "area_px": 336}}, {"type": "Feature", "geometry": {"type": "Point", "coordinates": [354.91069, 10.61666]}, "properties": {"diam_km": 1.721, "area_px": 663}}, {"type": "Feature", "geometry": {"type": "Point", "coordinates": [357.7029, 10.59925]}, "properties": {"diam_km": 3.152, "area_px": 2225}}, {"type": "Feature", "geometry": {"type": "Point", "coordinates": [355.56314, 10.61884]}, "properties": {"diam_km": 1.541, "area_px": 532}}, {"type": "Feature", "geometry": {"type": "Point", "coordinates": [355.63717, 10.59803]}, "properties": {"diam_km": 2.218, "area_px": 1102}}, {"type": "Feature", "geometry": {"type": "Point", "coordinates": [355.10987, 10.60657]}, "properties": {"diam_km": 1.551, "area_px": 539}}, {"type": "Feature", "geometry": {"type": "Point", "coordinates": [357.13754, 10.59557]}, "properties": {"diam_km": 1.518, "area_px": 516}}, {"type": "Feature", "geometry": {"type": "Point", "coordinates": [357.61288, 10.59664]}, "properties": {"diam_km": 1.086, "area_px": 264}}, {"type": "Feature", "geometry": {"type": "Point", "coordinates": [355.04768, 10.55179]}, "properties": {"diam_km": 1.387, "area_px": 431}}, {"type": "Feature", "geometry": {"type": "Point", "coordinates": [356.94756, 10.5501]}, "properties": {"diam_km": 1.082, "area_px": 262}}, {"type": "Feature", "geometry": {"type": "Point", "coordinates": [357.42928, 10.53227]}, "properties": {"diam_km": 1.326, "area_px": 394}}, {"type": "Feature", "geometry": {"type": "Point", "coordinates": [354.79918, 10.46434]}, "properties": {"diam_km": 3.376, "area_px": 2553}}, {"type": "Feature", "geometry": {"type": "Point", "coordinates": [354.55932, 10.48592]}, "properties": {"diam_km": 1.333, "area_px": 398}}, {"type": "Feature", "geometry": {"type": "Point", "coordinates": [356.82862, 10.47615]}, "properties": {"diam_km": 1.913, "area_px": 820}}, {"type": "Feature", "geometry": {"type": "Point", "coordinates": [358.91732, 10.48311]}, "properties": {"diam_km": 1.336, "area_px": 400}}, {"type": "Feature", "geometry": {"type": "Point", "coordinates": [356.93233, 10.4191]}, "properties": {"diam_km": 3.391, "area_px": 2576}}, {"type": "Feature", "geometry": {"type": "Point", "coordinates": [357.68206, 10.41934]}, "properties": {"diam_km": 2.476, "area_px": 1373}}, {"type": "Feature", "geometry": {"type": "Point", "coordinates": [354.91113, 10.40617]}, "properties": {"diam_km": 1.81, "area_px": 734}}, {"type": "Feature", "geometry": {"type": "Point", "coordinates": [358.19955, 10.32928]}, "properties": {"diam_km": 2.704, "area_px": 1638}}, {"type": "Feature", "geometry": {"type": "Point", "coordinates": [357.45266, 10.29699]}, "properties": {"diam_km": 2.594, "area_px": 1507}}, {"type": "Feature", "geometry": {"type": "Point", "coordinates": [357.05856, 10.31536]}, "properties": {"diam_km": 1.521, "area_px": 518}}, {"type": "Feature", "geometry": {"type": "Point", "coordinates": [358.64318, 10.31875]}, "properties": {"diam_km": 1.094, "area_px": 268}}, {"type": "Feature", "geometry": {"type": "Point", "coordinates": [357.67875, 10.29891]}, "properties": {"diam_km": 1.503, "area_px": 506}}, {"type": "Feature", "geometry": {"type": "Point", "coordinates": [357.12618, 10.21378]}, "properties": {"diam_km": 2.554, "area_px": 1461}}, {"type": "Feature", "geometry": {"type": "Point", "coordinates": [356.21809, 10.22236]}, "properties": {"diam_km": 1.478, "area_px": 489}}, {"type": "Feature", "geometry": {"type": "Point", "coordinates": [357.90004, 10.22154]}, "properties": {"diam_km": 1.165, "area_px": 304}}, {"type": "Feature", "geometry": {"type": "Point", "coordinates": [357.61352, 10.21151]}, "properties": {"diam_km": 1.664, "area_px": 620}}, {"type": "Feature", "geometry": {"type": "Point", "coordinates": [357.78568, 10.16223]}, "properties": {"diam_km": 2.465, "area_px": 1361}}, {"type": "Feature", "geometry": {"type": "Point", "coordinates": [358.56033, 10.19456]}, "properties": {"diam_km": 1.537, "area_px": 529}}, {"type": "Feature", "geometry": {"type": "Point", "coordinates": [356.49888, 10.18594]}, "properties": {"diam_km": 1.782, "area_px": 711}}, {"type": "Feature", "geometry": {"type": "Point", "coordinates": [355.65694, 10.18984]}, "properties": {"diam_km": 1.098, "area_px": 270}}, {"type": "Feature", "geometry": {"type": "Point", "coordinates": [353.56449, 10.14646]}, "properties": {"diam_km": 1.442, "area_px": 466}}, {"type": "Feature", "geometry": {"type": "Point", "coordinates": [355.55202, 10.13344]}, "properties": {"diam_km": 1.442, "area_px": 466}}, {"type": "Feature", "geometry": {"type": "Point", "coordinates": [357.03868, 10.14003]}, "properties": {"diam_km": 1.247, "area_px": 348}}, {"type": "Feature", "geometry": {"type": "Point", "coordinates": [355.33431, 10.1205]}, "properties": {"diam_km": 1.018, "area_px": 232}}, {"type": "Feature", "geometry": {"type": "Point", "coordinates": [353.51928, 10.10975]}, "properties": {"diam_km": 1.472, "area_px": 485}}, {"type": "Feature", "geometry": {"type": "Point", "coordinates": [357.20045, 10.07944]}, "properties": {"diam_km": 1.91, "area_px": 817}}, {"type": "Feature", "geometry": {"type": "Point", "coordinates": [353.64743, 10.08096]}, "properties": {"diam_km": 1.559, "area_px": 544}}, {"type": "Feature", "geometry": {"type": "Point", "coordinates": [354.84336, 10.04225]}, "properties": {"diam_km": 2.738, "area_px": 1679}}, {"type": "Feature", "geometry": {"type": "Point", "coordinates": [358.18858, 10.04663]}, "properties": {"diam_km": 1.248, "area_px": 349}}, {"type": "Feature", "geometry": {"type": "Point", "coordinates": [355.07334, 10.04317]}, "properties": {"diam_km": 1.094, "area_px": 268}}, {"type": "Feature", "geometry": {"type": "Point", "coordinates": [355.22185, 10.02337]}, "properties": {"diam_km": 1.615, "area_px": 584}}, {"type": "Feature", "geometry": {"type": "Point", "coordinates": [357.66246, 10.01795]}, "properties": {"diam_km": 1.398, "area_px": 438}}, {"type": "Feature", "geometry": {"type": "Point", "coordinates": [353.59003, 9.98422]}, "properties": {"diam_km": 1.378, "area_px": 425}}, {"type": "Feature", "geometry": {"type": "Point", "coordinates": [353.2858, 9.93738]}, "properties": {"diam_km": 1.47, "area_px": 484}}, {"type": "Feature", "geometry": {"type": "Point", "coordinates": [357.5434, 9.91796]}, "properties": {"diam_km": 2.333, "area_px": 1219}}, {"type": "Feature", "geometry": {"type": "Point", "coordinates": [355.56705, 9.9194]}, "properties": {"diam_km": 1.475, "area_px": 487}}, {"type": "Feature", "geometry": {"type": "Point", "coordinates": [355.35079, 9.92404]}, "properties": {"diam_km": 1.106, "area_px": 274}}, {"type": "Feature", "geometry": {"type": "Point", "coordinates": [357.30207, 9.89292]}, "properties": {"diam_km": 3.045, "area_px": 2077}}, {"type": "Feature", "geometry": {"type": "Point", "coordinates": [358.91483, 9.89481]}, "properties": {"diam_km": 1.358, "area_px": 413}}, {"type": "Feature", "geometry": {"type": "Point", "coordinates": [355.31284, 9.85912]}, "properties": {"diam_km": 2.385, "area_px": 1274}}, {"type": "Feature", "geometry": {"type": "Point", "coordinates": [358.55815, 9.83538]}, "properties": {"diam_km": 1.057, "area_px": 250}}, {"type": "Feature", "geometry": {"type": "Point", "coordinates": [354.36892, 9.7698]}, "properties": {"diam_km": 1.178, "area_px": 311}}, {"type": "Feature", "geometry": {"type": "Point", "coordinates": [354.42627, 9.76556]}, "properties": {"diam_km": 1.717, "area_px": 660}}, {"type": "Feature", "geometry": {"type": "Point", "coordinates": [355.93913, 9.7147]}, "properties": {"diam_km": 3.954, "area_px": 3502}}, {"type": "Feature", "geometry": {"type": "Point", "coordinates": [354.12337, 9.73951]}, "properties": {"diam_km": 1.797, "area_px": 723}}, {"type": "Feature", "geometry": {"type": "Point", "coordinates": [358.84523, 9.67069]}, "properties": {"diam_km": 1.206, "area_px": 326}}, {"type": "Feature", "geometry": {"type": "Point", "coordinates": [354.54015, 9.65701]}, "properties": {"diam_km": 1.546, "area_px": 535}}, {"type": "Feature", "geometry": {"type": "Point", "coordinates": [357.59282, 9.65728]}, "properties": {"diam_km": 1.36, "area_px": 414}}, {"type": "Feature", "geometry": {"type": "Point", "coordinates": [358.01678, 9.65136]}, "properties": {"diam_km": 1.414, "area_px": 448}}, {"type": "Feature", "geometry": {"type": "Point", "coordinates": [358.54871, 9.62353]}, "properties": {"diam_km": 1.0, "area_px": 224}}, {"type": "Feature", "geometry": {"type": "Point", "coordinates": [355.5476, 9.58335]}, "properties": {"diam_km": 2.827, "area_px": 1790}}, {"type": "Feature", "geometry": {"type": "Point", "coordinates": [354.03731, 9.53931]}, "properties": {"diam_km": 2.57, "area_px": 1479}}, {"type": "Feature", "geometry": {"type": "Point", "coordinates": [353.96839, 9.57599]}, "properties": {"diam_km": 1.485, "area_px": 494}}, {"type": "Feature", "geometry": {"type": "Point", "coordinates": [357.51681, 9.57468]}, "properties": {"diam_km": 1.188, "area_px": 316}}, {"type": "Feature", "geometry": {"type": "Point", "coordinates": [354.85322, 9.56661]}, "properties": {"diam_km": 1.571, "area_px": 553}}, {"type": "Feature", "geometry": {"type": "Point", "coordinates": [358.92191, 9.5489]}, "properties": {"diam_km": 1.741, "area_px": 679}}, {"type": "Feature", "geometry": {"type": "Point", "coordinates": [356.34909, 9.54393]}, "properties": {"diam_km": 1.731, "area_px": 671}}, {"type": "Feature", "geometry": {"type": "Point", "coordinates": [358.63112, 9.51962]}, "properties": {"diam_km": 1.163, "area_px": 303}}, {"type": "Feature", "geometry": {"type": "Point", "coordinates": [355.55338, 9.48621]}, "properties": {"diam_km": 1.163, "area_px": 303}}, {"type": "Feature", "geometry": {"type": "Point", "coordinates": [355.87211, 9.48836]}, "properties": {"diam_km": 1.169, "area_px": 306}}, {"type": "Feature", "geometry": {"type": "Point", "coordinates": [356.16046, 9.46586]}, "properties": {"diam_km": 2.448, "area_px": 1342}}, {"type": "Feature", "geometry": {"type": "Point", "coordinates": [354.31623, 9.48497]}, "properties": {"diam_km": 1.271, "area_px": 362}}, {"type": "Feature", "geometry": {"type": "Point", "coordinates": [356.35615, 9.4707]}, "properties": {"diam_km": 1.007, "area_px": 227}}, {"type": "Feature", "geometry": {"type": "Point", "coordinates": [355.73427, 9.44943]}, "properties": {"diam_km": 1.899, "area_px": 808}}, {"type": "Feature", "geometry": {"type": "Point", "coordinates": [356.28168, 9.43419]}, "properties": {"diam_km": 1.719, "area_px": 662}}, {"type": "Feature", "geometry": {"type": "Point", "coordinates": [354.5137, 9.38883]}, "properties": {"diam_km": 1.186, "area_px": 315}}, {"type": "Feature", "geometry": {"type": "Point", "coordinates": [355.2509, 9.37814]}, "properties": {"diam_km": 2.346, "area_px": 1233}}, {"type": "Feature", "geometry": {"type": "Point", "coordinates": [354.62368, 9.37488]}, "properties": {"diam_km": 1.355, "area_px": 411}}, {"type": "Feature", "geometry": {"type": "Point", "coordinates": [356.36557, 9.36661]}, "properties": {"diam_km": 1.441, "area_px": 465}}, {"type": "Feature", "geometry": {"type": "Point", "coordinates": [355.78372, 9.36232]}, "properties": {"diam_km": 1.248, "area_px": 349}}, {"type": "Feature", "geometry": {"type": "Point", "coordinates": [355.94512, 9.3399]}, "properties": {"diam_km": 2.55, "area_px": 1456}}, {"type": "Feature", "geometry": {"type": "Point", "coordinates": [358.04558, 9.34015]}, "properties": {"diam_km": 1.812, "area_px": 735}}, {"type": "Feature", "geometry": {"type": "Point", "coordinates": [357.91267, 9.34248]}, "properties": {"diam_km": 1.775, "area_px": 706}}, {"type": "Feature", "geometry": {"type": "Point", "coordinates": [355.58172, 9.325]}, "properties": {"diam_km": 2.262, "area_px": 1146}}, {"type": "Feature", "geometry": {"type": "Point", "coordinates": [354.15512, 9.31027]}, "properties": {"diam_km": 1.95, "area_px": 852}}, {"type": "Feature", "geometry": {"type": "Point", "coordinates": [355.26938, 9.3097]}, "properties": {"diam_km": 1.203, "area_px": 324}}, {"type": "Feature", "geometry": {"type": "Point", "coordinates": [357.71889, 9.29368]}, "properties": {"diam_km": 1.627, "area_px": 593}}, {"type": "Feature", "geometry": {"type": "Point", "coordinates": [358.15912, 9.26368]}, "properties": {"diam_km": 2.161, "area_px": 1046}}, {"type": "Feature", "geometry": {"type": "Point", "coordinates": [356.26794, 9.26947]}, "properties": {"diam_km": 1.964, "area_px": 864}}, {"type": "Feature", "geometry": {"type": "Point", "coordinates": [356.0431, 9.25507]}, "properties": {"diam_km": 1.248, "area_px": 349}}, {"type": "Feature", "geometry": {"type": "Point", "coordinates": [357.82609, 9.23238]}, "properties": {"diam_km": 1.422, "area_px": 453}}, {"type": "Feature", "geometry": {"type": "Point", "coordinates": [355.01913, 9.22657]}, "properties": {"diam_km": 1.449, "area_px": 470}}, {"type": "Feature", "geometry": {"type": "Point", "coordinates": [354.09889, 9.21425]}, "properties": {"diam_km": 1.784, "area_px": 713}}, {"type": "Feature", "geometry": {"type": "Point", "coordinates": [354.30917, 9.21664]}, "properties": {"diam_km": 1.082, "area_px": 262}}, {"type": "Feature", "geometry": {"type": "Point", "coordinates": [355.33006, 9.21003]}, "properties": {"diam_km": 1.531, "area_px": 525}}, {"type": "Feature", "geometry": {"type": "Point", "coordinates": [356.37656, 9.21688]}, "properties": {"diam_km": 1.238, "area_px": 343}}, {"type": "Feature", "geometry": {"type": "Point", "coordinates": [355.61447, 9.16518]}, "properties": {"diam_km": 2.43, "area_px": 1322}}, {"type": "Feature", "geometry": {"type": "Point", "coordinates": [358.23732, 9.16618]}, "properties": {"diam_km": 1.849, "area_px": 766}}, {"type": "Feature", "geometry": {"type": "Point", "coordinates": [353.09471, 9.1731]}, "properties": {"diam_km": 1.277, "area_px": 365}}, {"type": "Feature", "geometry": {"type": "Point", "coordinates": [353.2653, 9.13928]}, "properties": {"diam_km": 2.43, "area_px": 1322}}, {"type": "Feature", "geometry": {"type": "Point", "coordinates": [358.68927, 9.12248]}, "properties": {"diam_km": 1.677, "area_px": 630}}, {"type": "Feature", "geometry": {"type": "Point", "coordinates": [355.33404, 9.1452]}, "properties": {"diam_km": 1.161, "area_px": 302}}, {"type": "Feature", "geometry": {"type": "Point", "coordinates": [356.76962, 9.13863]}, "properties": {"diam_km": 1.937, "area_px": 840}}, {"type": "Feature", "geometry": {"type": "Point", "coordinates": [355.41602, 9.01203]}, "properties": {"diam_km": 4.573, "area_px": 4683}}, {"type": "Feature", "geometry": {"type": "Point", "coordinates": [358.3505, 9.05406]}, "properties": {"diam_km": 2.694, "area_px": 1626}}, {"type": "Feature", "geometry": {"type": "Point", "coordinates": [353.1537, 9.07699]}, "properties": {"diam_km": 1.218, "area_px": 332}}, {"type": "Feature", "geometry": {"type": "Point", "coordinates": [357.53027, 8.99229]}, "properties": {"diam_km": 2.867, "area_px": 1841}}, {"type": "Feature", "geometry": {"type": "Point", "coordinates": [353.38785, 9.05447]}, "properties": {"diam_km": 1.812, "area_px": 735}}, {"type": "Feature", "geometry": {"type": "Point", "coordinates": [357.63815, 9.03897]}, "properties": {"diam_km": 1.949, "area_px": 851}}, {"type": "Feature", "geometry": {"type": "Point", "coordinates": [355.60017, 9.03756]}, "properties": {"diam_km": 1.936, "area_px": 839}}, {"type": "Feature", "geometry": {"type": "Point", "coordinates": [356.21133, 9.04174]}, "properties": {"diam_km": 1.353, "area_px": 410}}, {"type": "Feature", "geometry": {"type": "Point", "coordinates": [355.71779, 9.00218]}, "properties": {"diam_km": 1.779, "area_px": 709}}, {"type": "Feature", "geometry": {"type": "Point", "coordinates": [358.89753, 9.00134]}, "properties": {"diam_km": 1.116, "area_px": 279}}, {"type": "Feature", "geometry": {"type": "Point", "coordinates": [353.17285, 8.95345]}, "properties": {"diam_km": 2.039, "area_px": 931}}, {"type": "Feature", "geometry": {"type": "Point", "coordinates": [355.30287, 8.97187]}, "properties": {"diam_km": 1.672, "area_px": 626}}, {"type": "Feature", "geometry": {"type": "Point", "coordinates": [355.86118, 8.97923]}, "properties": {"diam_km": 1.818, "area_px": 740}}, {"type": "Feature", "geometry": {"type": "Point", "coordinates": [356.32922, 8.98482]}, "properties": {"diam_km": 1.018, "area_px": 232}}, {"type": "Feature", "geometry": {"type": "Point", "coordinates": [354.07829, 8.94318]}, "properties": {"diam_km": 1.464, "area_px": 480}}, {"type": "Feature", "geometry": {"type": "Point", "coordinates": [354.9619, 8.93671]}, "properties": {"diam_km": 1.601, "area_px": 574}}, {"type": "Feature", "geometry": {"type": "Point", "coordinates": [353.33312, 8.88805]}, "properties": {"diam_km": 3.437, "area_px": 2645}}, {"type": "Feature", "geometry": {"type": "Point", "coordinates": [355.80594, 8.90996]}, "properties": {"diam_km": 2.412, "area_px": 1303}}, {"type": "Feature", "geometry": {"type": "Point", "coordinates": [353.90136, 8.92674]}, "properties": {"diam_km": 1.096, "area_px": 269}}, {"type": "Feature", "geometry": {"type": "Point", "coordinates": [355.4696, 8.89469]}, "properties": {"diam_km": 2.917, "area_px": 1906}}, {"type": "Feature", "geometry": {"type": "Point", "coordinates": [355.65106, 8.90257]}, "properties": {"diam_km": 2.37, "area_px": 1258}}, {"type": "Feature", "geometry": {"type": "Point", "coordinates": [356.81666, 8.8615]}, "properties": {"diam_km": 1.854, "area_px": 770}}, {"type": "Feature", "geometry": {"type": "Point", "coordinates": [358.92721, 8.82795]}, "properties": {"diam_km": 1.561, "area_px": 546}}, {"type": "Feature", "geometry": {"type": "Point", "coordinates": [353.14781, 8.84024]}, "properties": {"diam_km": 1.87, "area_px": 783}}, {"type": "Feature", "geometry": {"type": "Point", "coordinates": [356.19193, 8.84407]}, "properties": {"diam_km": 1.214, "area_px": 330}}, {"type": "Feature", "geometry": {"type": "Point", "coordinates": [355.54742, 8.79345]}, "properties": {"diam_km": 2.984, "area_px": 1994}}, {"type": "Feature", "geometry": {"type": "Point", "coordinates": [353.88975, 8.83629]}, "properties": {"diam_km": 1.144, "area_px": 293}}, {"type": "Feature", "geometry": {"type": "Point", "coordinates": [357.00435, 8.73456]}, "properties": {"diam_km": 1.255, "area_px": 353}}, {"type": "Feature", "geometry": {"type": "Point", "coordinates": [354.10301, 8.77835]}, "properties": {"diam_km": 1.883, "area_px": 794}}, {"type": "Feature", "geometry": {"type": "Point", "coordinates": [353.013, 8.71077]}, "properties": {"diam_km": 1.271, "area_px": 362}}, {"type": "Feature", "geometry": {"type": "Point", "coordinates": [354.53062, 8.71375]}, "properties": {"diam_km": 1.515, "area_px": 514}}, {"type": "Feature", "geometry": {"type": "Point", "coordinates": [354.61332, 8.69386]}, "properties": {"diam_km": 2.227, "area_px": 1111}}, {"type": "Feature", "geometry": {"type": "Point", "coordinates": [358.25238, 8.70699]}, "properties": {"diam_km": 1.108, "area_px": 275}}, {"type": "Feature", "geometry": {"type": "Point", "coordinates": [354.79237, 8.67532]}, "properties": {"diam_km": 1.608, "area_px": 579}}, {"type": "Feature", "geometry": {"type": "Point", "coordinates": [358.40826, 8.67579]}, "properties": {"diam_km": 1.356, "area_px": 412}}, {"type": "Feature", "geometry": {"type": "Point", "coordinates": [353.11067, 8.66704]}, "properties": {"diam_km": 1.819, "area_px": 741}}, {"type": "Feature", "geometry": {"type": "Point", "coordinates": [357.97496, 8.64744]}, "properties": {"diam_km": 1.891, "area_px": 801}}, {"type": "Feature", "geometry": {"type": "Point", "coordinates": [354.91265, 8.64363]}, "properties": {"diam_km": 1.735, "area_px": 674}}, {"type": "Feature", "geometry": {"type": "Point", "coordinates": [358.55885, 8.62949]}, "properties": {"diam_km": 1.886, "area_px": 797}}, {"type": "Feature", "geometry": {"type": "Point", "coordinates": [355.63424, 8.60952]}, "properties": {"diam_km": 1.858, "area_px": 773}}, {"type": "Feature", "geometry": {"type": "Point", "coordinates": [358.65743, 8.61136]}, "properties": {"diam_km": 1.657, "area_px": 615}}, {"type": "Feature", "geometry": {"type": "Point", "coordinates": [353.88493, 8.51977]}, "properties": {"diam_km": 5.278, "area_px": 6239}}, {"type": "Feature", "geometry": {"type": "Point", "coordinates": [355.98346, 8.58687]}, "properties": {"diam_km": 1.34, "area_px": 402}}, {"type": "Feature", "geometry": {"type": "Point", "coordinates": [354.85955, 8.58021]}, "properties": {"diam_km": 1.299, "area_px": 378}}, {"type": "Feature", "geometry": {"type": "Point", "coordinates": [356.22871, 8.54155]}, "properties": {"diam_km": 2.982, "area_px": 1992}}, {"type": "Feature", "geometry": {"type": "Point", "coordinates": [355.38672, 8.54575]}, "properties": {"diam_km": 2.225, "area_px": 1109}}, {"type": "Feature", "geometry": {"type": "Point", "coordinates": [356.59336, 8.55029]}, "properties": {"diam_km": 1.086, "area_px": 264}}, {"type": "Feature", "geometry": {"type": "Point", "coordinates": [358.23579, 8.53461]}, "properties": {"diam_km": 1.458, "area_px": 476}}, {"type": "Feature", "geometry": {"type": "Point", "coordinates": [357.74884, 8.51738]}, "properties": {"diam_km": 1.325, "area_px": 393}}, {"type": "Feature", "geometry": {"type": "Point", "coordinates": [353.11671, 8.48515]}, "properties": {"diam_km": 1.311, "area_px": 385}}, {"type": "Feature", "geometry": {"type": "Point", "coordinates": [355.22356, 8.4607]}, "properties": {"diam_km": 1.629, "area_px": 594}}, {"type": "Feature", "geometry": {"type": "Point", "coordinates": [355.6101, 8.48435]}, "properties": {"diam_km": 1.073, "area_px": 258}}, {"type": "Feature", "geometry": {"type": "Point", "coordinates": [356.06384, 8.46305]}, "properties": {"diam_km": 1.511, "area_px": 511}}, {"type": "Feature", "geometry": {"type": "Point", "coordinates": [354.89516, 8.43252]}, "properties": {"diam_km": 2.198, "area_px": 1082}}, {"type": "Feature", "geometry": {"type": "Point", "coordinates": [358.37876, 8.43373]}, "properties": {"diam_km": 1.702, "area_px": 649}}, {"type": "Feature", "geometry": {"type": "Point", "coordinates": [356.87694, 8.3861]}, "properties": {"diam_km": 1.861, "area_px": 776}}, {"type": "Feature", "geometry": {"type": "Point", "coordinates": [355.47139, 8.37874]}, "properties": {"diam_km": 2.042, "area_px": 934}}, {"type": "Feature", "geometry": {"type": "Point", "coordinates": [355.21593, 8.35242]}, "properties": {"diam_km": 1.733, "area_px": 673}}, {"type": "Feature", "geometry": {"type": "Point", "coordinates": [355.58688, 8.34382]}, "properties": {"diam_km": 2.837, "area_px": 1803}}, {"type": "Feature", "geometry": {"type": "Point", "coordinates": [354.31297, 8.24377]}, "properties": {"diam_km": 5.278, "area_px": 6239}}, {"type": "Feature", "geometry": {"type": "Point", "coordinates": [357.43489, 8.34436]}, "properties": {"diam_km": 1.403, "area_px": 441}}, {"type": "Feature", "geometry": {"type": "Point", "coordinates": [358.94937, 8.3241]}, "properties": {"diam_km": 1.458, "area_px": 476}}, {"type": "Feature", "geometry": {"type": "Point", "coordinates": [353.11211, 8.27823]}, "properties": {"diam_km": 1.255, "area_px": 353}}, {"type": "Feature", "geometry": {"type": "Point", "coordinates": [354.83411, 8.26317]}, "properties": {"diam_km": 1.843, "area_px": 761}}, {"type": "Feature", "geometry": {"type": "Point", "coordinates": [357.3589, 8.24187]}, "properties": {"diam_km": 2.234, "area_px": 1118}}, {"type": "Feature", "geometry": {"type": "Point", "coordinates": [354.73447, 8.25278]}, "properties": {"diam_km": 1.321, "area_px": 391}}, {"type": "Feature", "geometry": {"type": "Point", "coordinates": [355.30317, 8.24569]}, "properties": {"diam_km": 1.077, "area_px": 260}}, {"type": "Feature", "geometry": {"type": "Point", "coordinates": [358.95876, 8.23911]}, "properties": {"diam_km": 1.583, "area_px": 561}}, {"type": "Feature", "geometry": {"type": "Point", "coordinates": [353.19476, 8.2445]}, "properties": {"diam_km": 1.199, "area_px": 322}}, {"type": "Feature", "geometry": {"type": "Point", "coordinates": [355.639, 8.18799]}, "properties": {"diam_km": 2.348, "area_px": 1235}}, {"type": "Feature", "geometry": {"type": "Point", "coordinates": [358.27243, 8.21559]}, "properties": {"diam_km": 1.146, "area_px": 294}}, {"type": "Feature", "geometry": {"type": "Point", "coordinates": [354.85851, 8.16724]}, "properties": {"diam_km": 2.581, "area_px": 1492}}, {"type": "Feature", "geometry": {"type": "Point", "coordinates": [353.07214, 8.18929]}, "properties": {"diam_km": 1.472, "area_px": 485}}, {"type": "Feature", "geometry": {"type": "Point", "coordinates": [353.30685, 8.17715]}, "properties": {"diam_km": 1.777, "area_px": 707}}, {"type": "Feature", "geometry": {"type": "Point", "coordinates": [356.35439, 8.1763]}, "properties": {"diam_km": 1.838, "area_px": 757}}, {"type": "Feature", "geometry": {"type": "Point", "coordinates": [357.19227, 8.17773]}, "properties": {"diam_km": 1.605, "area_px": 577}}, {"type": "Feature", "geometry": {"type": "Point", "coordinates": [356.9572, 8.16587]}, "properties": {"diam_km": 1.496, "area_px": 501}}, {"type": "Feature", "geometry": {"type": "Point", "coordinates": [357.02251, 8.15925]}, "properties": {"diam_km": 1.701, "area_px": 648}}, {"type": "Feature", "geometry": {"type": "Point", "coordinates": [354.70075, 8.15493]}, "properties": {"diam_km": 1.573, "area_px": 554}}, {"type": "Feature", "geometry": {"type": "Point", "coordinates": [356.2764, 8.15403]}, "properties": {"diam_km": 1.755, "area_px": 690}}, {"type": "Feature", "geometry": {"type": "Point", "coordinates": [354.3713, 8.1333]}, "properties": {"diam_km": 2.132, "area_px": 1018}}, {"type": "Feature", "geometry": {"type": "Point", "coordinates": [355.81989, 8.14695]}, "properties": {"diam_km": 1.144, "area_px": 293}}, {"type": "Feature", "geometry": {"type": "Point", "coordinates": [356.59818, 8.12752]}, "properties": {"diam_km": 2.171, "area_px": 1056}}, {"type": "Feature", "geometry": {"type": "Point", "coordinates": [356.21803, 8.12934]}, "properties": {"diam_km": 1.432, "area_px": 459}}, {"type": "Feature", "geometry": {"type": "Point", "coordinates": [357.11817, 8.12805]}, "properties": {"diam_km": 1.521, "area_px": 518}}, {"type": "Feature", "geometry": {"type": "Point", "coordinates": [355.02494, 8.09703]}, "properties": {"diam_km": 1.957, "area_px": 858}}, {"type": "Feature", "geometry": {"type": "Point", "coordinates": [358.81153, 8.07103]}, "properties": {"diam_km": 2.397, "area_px": 1287}}, {"type": "Feature", "geometry": {"type": "Point", "coordinates": [353.30834, 8.03771]}, "properties": {"diam_km": 1.66, "area_px": 617}}, {"type": "Feature", "geometry": {"type": "Point", "coordinates": [353.96423, 8.02634]}, "properties": {"diam_km": 1.966, "area_px": 866}}, {"type": "Feature", "geometry": {"type": "Point", "coordinates": [353.45071, 8.01713]}, "properties": {"diam_km": 1.073, "area_px": 258}}]}