{"type": "FeatureCollection", "name": "RimaeBode_UNet_crater_catalogue", "crs": {"type": "name", "properties": {"name": "urn:ogc:def:crs:OGC:1.3:CRS84"}}, "features": [{"type": "Feature", "geometry": {"type": "Point", "coordinates": [356.14225, 12.91148]}, "properties": {"diam_km": 4.567, "area_px": 4672}}, {"type": "Feature", "geometry": {"type": "Point", "coordinates": [358.37379, 12.98195]}, "properties": {"diam_km": 1.733, "area_px": 673}}, {"type": "Feature", "geometry": {"type": "Point", "coordinates": [356.88499, 12.98399]}, "properties": {"diam_km": 1.165, "area_px": 304}}, {"type": "Feature", "geometry": {"type": "Point", "coordinates": [358.903, 12.95871]}, "properties": {"diam_km": 1.917, "area_px": 823}}, {"type": "Feature", "geometry": {"type": "Point", "coordinates": [358.72406, 12.94072]}, "properties": {"diam_km": 1.685, "area_px": 636}}, {"type": "Feature", "geometry": {"type": "Point", "coordinates": [356.0246, 12.93908]}, "properties": {"diam_km": 1.173, "area_px": 308}}, {"type": "Feature", "geometry": {"type": "Point", "coordinates": [357.12928, 12.91574]}, "properties": {"diam_km": 1.424, "area_px": 454}}, {"type": "Feature", "geometry": {"type": "Point", "coordinates": [357.80874, 12.91713]}, "properties": {"diam_km": 1.186, "area_px": 315}}, {"type": "Feature", "geometry": {"type": "Point", "coordinates": [357.98198, 12.90131]}, "properties": {"diam_km": 1.195, "area_px": 320}}, {"type": "Feature", "geometry": {"type": "Point", "coordinates": [353.86021, 12.88395]}, "properties": {"diam_km": 1.754, "area_px": 689}}, {"type": "Feature", "geometry": {"type": "Point", "coordinates": [357.22521, 12.86944]}, "properties": {"diam_km": 2.316, "area_px": 1201}}, {"type": "Feature", "geometry": {"type": "Point", "coordinates": [357.8627, 12.87917]}, "properties": {"diam_km": 1.681, "area_px": 633}}, {"type": "Feature", "geometry": {"type": "Point", "coordinates": [358.9671, 12.87474]}, "properties": {"diam_km": 1.0, "area_px": 224}}, {"type": "Feature", "geometry": {"type": "Point", "coordinates": [357.34246, 12.86615]}, "properties": {"diam_km": 1.277, "area_px": 365}}, {"type": "Feature", "geometry": {"type": "Point", "coordinates": [358.02852, 12.85201]}, "properties": {"diam_km": 1.116, "area_px": 279}}, {"type": "Feature", "geometry": {"type": "Point", "coordinates": [357.09847, 12.82877]}, "properties": {"diam_km": 1.439, "area_px": 464}}, {"type": "Feature", "geometry": {"type": "Point", "coordinates": [358.35087, 12.80907]}, "properties": {"diam_km": 2.237, "area_px": 1121}}, {"type": "Feature", "geometry": {"type": "Point", "coordinates": [357.83753, 12.79407]}, "properties": {"diam_km": 2.077, "area_px": 966}}, {"type": "Feature", "geometry": {"type": "Point", "coordinates": [356.3577, 12.77031]}, "properties": {"diam_km": 2.43, "area_px": 1323}}, {"type": "Feature", "geometry": {"type": "Point", "coordinates": [356.8191, 12.70004]}, "properties": {"diam_km": 4.212, "area_px": 3973}}, {"type": "Feature", "geometry": {"type": "Point", "coordinates": [358.72358, 12.76967]}, "properties": {"diam_km": 1.02, "area_px": 233}}, {"type": "Feature", "geometry": {"type": "Point", "coordinates": [357.51827, 12.75079]}, "properties": {"diam_km": 1.442, "area_px": 466}}, {"type": "Feature", "geometry": {"type": "Point", "coordinates": [357.91993, 12.74449]}, "properties": {"diam_km": 1.566, "area_px": 549}}, {"type": "Feature", "geometry": {"type": "Point", "coordinates": [353.17952, 12.74593]}, "properties": {"diam_km": 1.291, "area_px": 373}}, {"type": "Feature", "geometry": {"type": "Point", "coordinates": [356.47101, 12.71137]}, "properties": {"diam_km": 2.277, "area_px": 1161}}, {"type": "Feature", "geometry": {"type": "Point", "coordinates": [354.7642, 12.73226]}, "properties": {"diam_km": 1.693, "area_px": 642}}, {"type": "Feature", "geometry": {"type": "Point", "coordinates": [357.39988, 12.68935]}, "properties": {"diam_km": 3.159, "area_px": 2235}}, {"type": "Feature", "geometry": {"type": "Point", "coordinates": [358.94997, 12.67777]}, "properties": {"diam_km": 2.713, "area_px": 1648}}, {"type": "Feature", "geometry": {"type": "Point", "coordinates": [358.61976, 12.69442]}, "properties": {"diam_km": 1.252, "area_px": 351}}, {"type": "Feature", "geometry": {"type": "Point", "coordinates": [356.60789, 12.65848]}, "properties": {"diam_km": 2.522, "area_px": 1424}}, {"type": "Feature", "geometry": {"type": "Point", "coordinates": [357.74108, 12.6338]}, "properties": {"diam_km": 1.543, "area_px": 533}}, {"type": "Feature", "geometry": {"type": "Point", "coordinates": [358.13629, 12.6409]}, "properties": {"diam_km": 1.397, "area_px": 437}}, {"type": "Feature", "geometry": {"type": "Point", "coordinates": [358.61095, 12.63178]}, "properties": {"diam_km": 1.259, "area_px": 355}}, {"type": "Feature", "geometry": {"type": "Point", "coordinates": [357.54324, 12.62427]}, "properties": {"diam_km": 1.167, "area_px": 305}}, {"type": "Feature", "geometry": {"type": "Point", "coordinates": [353.78153, 12.59564]}, "properties": {"diam_km": 1.722, "area_px": 664}}, {"type": "Feature", "geometry": {"type": "Point", "coordinates": [357.98577, 12.58311]}, "properties": {"diam_km": 1.484, "area_px": 493}}, {"type": "Feature", "geometry": {"type": "Point", "coordinates": [356.1684, 12.58954]}, "properties": {"diam_km": 1.842, "area_px": 760}}, {"type": "Feature", "geometry": {"type": "Point", "coordinates": [358.29237, 12.589]}, "properties": {"diam_km": 2.216, "area_px": 1100}}, {"type": "Feature", "geometry": {"type": "Point", "coordinates": [356.85183, 12.58161]}, "properties": {"diam_km": 1.64, "area_px": 602}}, {"type": "Feature", "geometry": {"type": "Point", "coordinates": [357.92963, 12.57716]}, "properties": {"diam_km": 1.751, "area_px": 687}}, {"type": "Feature", "geometry": {"type": "Point", "coordinates": [357.54905, 12.56065]}, "properties": {"diam_km": 1.264, "area_px": 358}}, {"type": "Feature", "geometry": {"type": "Point", "coordinates": [358.60086, 12.5507]}, "properties": {"diam_km": 1.007, "area_px": 227}}, {"type": "Feature", "geometry": {"type": "Point", "coordinates": [356.95207, 12.53652]}, "properties": {"diam_km": 1.439, "area_px": 464}}, {"type": "Feature", "geometry": {"type": "Point", "coordinates": [358.39787, 12.53364]}, "properties": {"diam_km": 1.132, "area_px": 287}}, {"type": "Feature", "geometry": {"type": "Point", "coordinates": [357.43415, 12.52479]}, "properties": {"diam_km": 1.462, "area_px": 479}}, {"type": "Feature", "geometry": {"type": "Point", "coordinates": [354.04671, 12.46853]}, "properties": {"diam_km": 2.111, "area_px": 998}}, {"type": "Feature", "geometry": {"type": "Point", "coordinates": [354.93915, 12.48555]}, "properties": {"diam_km": 1.205, "area_px": 325}}, {"type": "Feature", "geometry": {"type": "Point", "coordinates": [355.97349, 12.4792]}, "properties": {"diam_km": 1.534, "area_px": 527}}, {"type": "Feature", "geometry": {"type": "Point", "coordinates": [358.02804, 12.47395]}, "properties": {"diam_km": 1.583, "area_px": 561}}, {"type": "Feature", "geometry": {"type": "Point", "coordinates": [356.61094, 12.42175]}, "properties": {"diam_km": 4.022, "area_px": 3622}}, {"type": "Feature", "geometry": {"type": "Point", "coordinates": [357.79556, 12.47899]}, "properties": {"diam_km": 1.435, "area_px": 461}}, {"type": "Feature", "geometry": {"type": "Point", "coordinates": [358.60365, 12.47919]}, "properties": {"diam_km": 1.328, "area_px": 395}}, {"type": "Feature", "geometry": {"type": "Point", "coordinates": [358.86296, 12.47828]}, "properties": {"diam_km": 1.214, "area_px": 330}}, {"type": "Feature", "geometry": {"type": "Point", "coordinates": [357.11532, 12.45274]}, "properties": {"diam_km": 1.774, "area_px": 705}}, {"type": "Feature", "geometry": {"type": "Point", "coordinates": [356.48441, 12.41166]}, "properties": {"diam_km": 1.876, "area_px": 788}}, {"type": "Feature", "geometry": {"type": "Point", "coordinates": [358.70024, 12.39389]}, "properties": {"diam_km": 3.353, "area_px": 2518}}, {"type": "Feature", "geometry": {"type": "Point", "coordinates": [358.20181, 12.42708]}, "properties": {"diam_km": 2.148, "area_px": 1033}}, {"type": "Feature", "geometry": {"type": "Point", "coordinates": [354.15959, 12.43843]}, "properties": {"diam_km": 1.361, "area_px": 415}}, {"type": "Feature", "geometry": {"type": "Point", "coordinates": [353.0174, 12.42629]}, "properties": {"diam_km": 1.566, "area_px": 549}}, {"type": "Feature", "geometry": {"type": "Point", "coordinates": [354.46236, 12.43013]}, "properties": {"diam_km": 1.518, "area_px": 516}}, {"type": "Feature", "geometry": {"type": "Point", "coordinates": [357.055, 12.42924]}, "properties": {"diam_km": 1.19, "area_px": 317}}, {"type": "Feature", "geometry": {"type": "Point", "coordinates": [358.95742, 12.41864]}, "properties": {"diam_km": 1.55, "area_px": 538}}, {"type": "Feature", "geometry": {"type": "Point", "coordinates": [354.21306, 12.42025]}, "properties": {"diam_km": 1.326, "area_px": 394}}, {"type": "Feature", "geometry": {"type": "Point", "coordinates": [358.5233, 12.39267]}, "properties": {"diam_km": 1.732, "area_px": 672}}, {"type": "Feature", "geometry": {"type": "Point", "coordinates": [358.60444, 12.41309]}, "properties": {"diam_km": 1.092, "area_px": 267}}, {"type": "Feature", "geometry": {"type": "Point", "coordinates": [356.25606, 12.33434]}, "properties": {"diam_km": 3.144, "area_px": 2214}}, {"type": "Feature", "geometry": {"type": "Point", "coordinates": [355.80933, 12.39324]}, "properties": {"diam_km": 1.313, "area_px": 386}}, {"type": "Feature", "geometry": {"type": "Point", "coordinates": [358.27781, 12.38186]}, "properties": {"diam_km": 1.851, "area_px": 767}}, {"type": "Feature", "geometry": {"type": "Point", "coordinates": [356.9461, 12.38638]}, "properties": {"diam_km": 1.328, "area_px": 395}}, {"type": "Feature", "geometry": {"type": "Point", "coordinates": [358.15114, 12.35739]}, "properties": {"diam_km": 1.506, "area_px": 508}}, {"type": "Feature", "geometry": {"type": "Point", "coordinates": [355.80975, 12.34572]}, "properties": {"diam_km": 1.027, "area_px": 236}}, {"type": "Feature", "geometry": {"type": "Point", "coordinates": [357.51923, 12.33749]}, "properties": {"diam_km": 1.508, "area_px": 509}}, {"type": "Feature", "geometry": {"type": "Point", "coordinates": [356.04212, 12.32984]}, "properties": {"diam_km": 1.902, "area_px": 810}}, {"type": "Feature", "geometry": {"type": "Point", "coordinates": [358.7848, 12.30959]}, "properties": {"diam_km": 2.33, "area_px": 1216}}, {"type": "Feature", "geometry": {"type": "Point", "coordinates": [358.46777, 12.31786]}, "properties": {"diam_km": 1.66, "area_px": 617}}, {"type": "Feature", "geometry": {"type": "Point", "coordinates": [358.0593, 12.31588]}, "properties": {"diam_km": 1.47, "area_px": 484}}, {"type": "Feature", "geometry": {"type": "Point", "coordinates": [355.23182, 12.23749]}, "properties": {"diam_km": 6.194, "area_px": 8592}}, {"type": "Feature", "geometry": {"type": "Point", "coordinates": [358.22493, 12.27909]}, "properties": {"diam_km": 2.802, "area_px": 1758}}, {"type": "Feature", "geometry": {"type": "Point", "coordinates": [358.61836, 12.30763]}, "properties": {"diam_km": 1.022, "area_px": 234}}, {"type": "Feature", "geometry": {"type": "Point", "coordinates": [357.43562, 12.27873]}, "properties": {"diam_km": 1.479, "area_px": 490}}, {"type": "Feature", "geometry": {"type": "Point", "coordinates": [353.47095, 12.21449]}, "properties": {"diam_km": 3.95, "area_px": 3494}}, {"type": "Feature", "geometry": {"type": "Point", "coordinates": [356.33292, 12.23939]}, "properties": {"diam_km": 1.6, "area_px": 573}}, {"type": "Feature", "geometry": {"type": "Point", "coordinates": [357.33593, 12.18557]}, "properties": {"diam_km": 3.89, "area_px": 3389}}, {"type": "Feature", "geometry": {"type": "Point", "coordinates": [356.01494, 12.21081]}, "properties": {"diam_km": 1.116, "area_px": 279}}, {"type": "Feature", "geometry": {"type": "Point", "coordinates": [357.48586, 12.20478]}, "properties": {"diam_km": 1.23, "area_px": 339}}, {"type": "Feature", "geometry": {"type": "Point", "coordinates": [354.24015, 12.18354]}, "properties": {"diam_km": 2.162, "area_px": 1047}}, {"type": "Feature", "geometry": {"type": "Point", "coordinates": [353.16453, 12.15864]}, "properties": {"diam_km": 2.436, "area_px": 1329}}, {"type": "Feature", "geometry": {"type": "Point", "coordinates": [357.63533, 12.16917]}, "properties": {"diam_km": 2.051, "area_px": 942}}, {"type": "Feature", "geometry": {"type": "Point", "coordinates": [358.1074, 12.18075]}, "properties": {"diam_km": 1.092, "area_px": 267}}, {"type": "Feature", "geometry": {"type": "Point", "coordinates": [357.98493, 12.13435]}, "properties": {"diam_km": 1.167, "area_px": 305}}, {"type": "Feature", "geometry": {"type": "Point", "coordinates": [356.63449, 12.11773]}, "properties": {"diam_km": 2.238, "area_px": 1122}}, {"type": "Feature", "geometry": {"type": "Point", "coordinates": [358.30765, 12.1355]}, "properties": {"diam_km": 1.343, "area_px": 404}}, {"type": "Feature", "geometry": {"type": "Point", "coordinates": [357.46239, 12.13639]}, "properties": {"diam_km": 1.4, "area_px": 439}}, {"type": "Feature", "geometry": {"type": "Point", "coordinates": [357.8442, 12.10884]}, "properties": {"diam_km": 1.898, "area_px": 807}}, {"type": "Feature", "geometry": {"type": "Point", "coordinates": [358.93638, 12.10267]}, "properties": {"diam_km": 1.241, "area_px": 345}}, {"type": "Feature", "geometry": {"type": "Point", "coordinates": [353.72155, 12.09523]}, "properties": {"diam_km": 1.548, "area_px": 537}}, {"type": "Feature", "geometry": {"type": "Point", "coordinates": [356.10666, 12.09436]}, "properties": {"diam_km": 1.472, "area_px": 485}}, {"type": "Feature", "geometry": {"type": "Point", "coordinates": [354.07697, 12.07259]}, "properties": {"diam_km": 1.609, "area_px": 580}}, {"type": "Feature", "geometry": {"type": "Point", "coordinates": [356.31704, 12.05757]}, "properties": {"diam_km": 2.383, "area_px": 1272}}, {"type": "Feature", "geometry": {"type": "Point", "coordinates": [358.45806, 12.07393]}, "properties": {"diam_km": 1.466, "area_px": 481}}, {"type": "Feature", "geometry": {"type": "Point", "coordinates": [355.97084, 12.06938]}, "properties": {"diam_km": 1.609, "area_px": 580}}, {"type": "Feature", "geometry": {"type": "Point", "coordinates": [353.59011, 12.05263]}, "properties": {"diam_km": 1.612, "area_px": 582}}, {"type": "Feature", "geometry": {"type": "Point", "coordinates": [357.61549, 12.05963]}, "properties": {"diam_km": 1.208, "area_px": 327}}, {"type": "Feature", "geometry": {"type": "Point", "coordinates": [358.05807, 12.04087]}, "properties": {"diam_km": 1.534, "area_px": 527}}, {"type": "Feature", "geometry": {"type": "Point", "coordinates": [356.19314, 12.03099]}, "properties": {"diam_km": 1.947, "area_px": 849}}, {"type": "Feature", "geometry": {"type": "Point", "coordinates": [356.4401, 12.02744]}, "properties": {"diam_km": 1.713, "area_px": 657}}, {"type": "Feature", "geometry": {"type": "Point", "coordinates": [355.6542, 12.0339]}, "properties": {"diam_km": 1.132, "area_px": 287}}, {"type": "Feature", "geometry": {"type": "Point", "coordinates": [356.7093, 12.02746]}, "properties": {"diam_km": 2.058, "area_px": 949}}, {"type": "Feature", "geometry": {"type": "Point", "coordinates": [358.13265, 12.0243]}, "properties": {"diam_km": 1.296, "area_px": 376}}, {"type": "Feature", "geometry": {"type": "Point", "coordinates": [355.81057, 11.97752]}, "properties": {"diam_km": 1.581, "area_px": 560}}, {"type": "Feature", "geometry": {"type": "Point", "coordinates": [358.2159, 11.97833]}, "properties": {"diam_km": 1.14, "area_px": 291}}, {"type": "Feature", "geometry": {"type": "Point", "coordinates": [356.40689, 11.96062]}, "properties": {"diam_km": 1.538, "area_px": 530}}, {"type": "Feature", "geometry": {"type": "Point", "coordinates": [358.07357, 11.96671]}, "properties": {"diam_km": 1.042, "area_px": 243}}, {"type": "Feature", "geometry": {"type": "Point", "coordinates": [358.35992, 11.93943]}, "properties": {"diam_km": 1.363, "area_px": 416}}, {"type": "Feature", "geometry": {"type": "Point", "coordinates": [356.83527, 11.92609]}, "properties": {"diam_km": 1.593, "area_px": 568}}, {"type": "Feature", "geometry": {"type": "Point", "coordinates": [358.12397, 11.92418]}, "properties": {"diam_km": 1.114, "area_px": 278}}, {"type": "Feature", "geometry": {"type": "Point", "coordinates": [356.56529, 11.8767]}, "properties": {"diam_km": 2.407, "area_px": 1298}}, {"type": "Feature", "geometry": {"type": "Point", "coordinates": [357.15988, 11.88188]}, "properties": {"diam_km": 1.435, "area_px": 461}}, {"type": "Feature", "geometry": {"type": "Point", "coordinates": [357.45086, 11.84886]}, "properties": {"diam_km": 1.931, "area_px": 835}}, {"type": "Feature", "geometry": {"type": "Point", "coordinates": [358.24555, 11.79454]}, "properties": {"diam_km": 3.931, "area_px": 3460}}, {"type": "Feature", "geometry": {"type": "Point", "coordinates": [354.25453, 11.85537]}, "properties": {"diam_km": 1.214, "area_px": 330}}, {"type": "Feature", "geometry": {"type": "Point", "coordinates": [357.26447, 11.81956]}, "properties": {"diam_km": 2.331, "area_px": 1217}}, {"type": "Feature", "geometry": {"type": "Point", "coordinates": [356.88147, 11.82987]}, "properties": {"diam_km": 1.065, "area_px": 254}}, {"type": "Feature", "geometry": {"type": "Point", "coordinates": [358.76136, 11.81517]}, "properties": {"diam_km": 1.995, "area_px": 891}}, {"type": "Feature", "geometry": {"type": "Point", "coordinates": [358.87935, 11.81968]}, "properties": {"diam_km": 1.033, "area_px": 239}}, {"type": "Feature", "geometry": {"type": "Point", "coordinates": [357.85475, 11.81429]}, "properties": {"diam_km": 1.071, "area_px": 257}}, {"type": "Feature", "geometry": {"type": "Point", "coordinates": [357.9056, 11.80695]}, "properties": {"diam_km": 1.311, "area_px": 385}}, {"type": "Feature", "geometry": {"type": "Point", "coordinates": [356.69676, 11.78051]}, "properties": {"diam_km": 1.547, "area_px": 536}}, {"type": "Feature", "geometry": {"type": "Point", "coordinates": [353.38983, 11.75711]}, "properties": {"diam_km": 1.908, "area_px": 815}}, {"type": "Feature", "geometry": {"type": "Point", "coordinates": [354.70957, 11.76374]}, "properties": {"diam_km": 1.506, "area_px": 508}}, {"type": "Feature", "geometry": {"type": "Point", "coordinates": [357.83074, 11.71587]}, "properties": {"diam_km": 2.732, "area_px": 1672}}, {"type": "Feature", "geometry": {"type": "Point", "coordinates": [356.54374, 11.72366]}, "properties": {"diam_km": 2.317, "area_px": 1202}}, {"type": "Feature", "geometry": {"type": "Point", "coordinates": [356.45777, 11.74456]}, "properties": {"diam_km": 1.228, "area_px": 338}}, {"type": "Feature", "geometry": {"type": "Point", "coordinates": [356.84283, 11.68992]}, "properties": {"diam_km": 3.067, "area_px": 2106}}, {"type": "Feature", "geometry": {"type": "Point", "coordinates": [357.7292, 11.71395]}, "properties": {"diam_km": 1.424, "area_px": 454}}, {"type": "Feature", "geometry": {"type": "Point", "coordinates": [358.40417, 11.71535]}, "properties": {"diam_km": 1.077, "area_px": 260}}, {"type": "Feature", "geometry": {"type": "Point", "coordinates": [358.14733, 11.69399]}, "properties": {"diam_km": 1.605, "area_px": 577}}, {"type": "Feature", "geometry": {"type": "Point", "coordinates": [358.4775, 11.69571]}, "properties": {"diam_km": 1.509, "area_px": 510}}, {"type": "Feature", "geometry": {"type": "Point", "coordinates": [358.92234, 11.68909]}, "properties": {"diam_km": 1.763, "area_px": 696}}, {"type": "Feature", "geometry": {"type": "Point", "coordinates": [356.45954, 11.6763]}, "properties": {"diam_km": 1.541, "area_px": 532}}, {"type": "Feature", "geometry": {"type": "Point", "coordinates": [356.9593, 11.67192]}, "properties": {"diam_km": 1.496, "area_px": 501}}, {"type": "Feature", "geometry": {"type": "Point", "coordinates": [357.4449, 11.64907]}, "properties": {"diam_km": 2.065, "area_px": 955}}, {"type": "Feature", "geometry": {"type": "Point", "coordinates": [356.65892, 11.60955]}, "properties": {"diam_km": 3.464, "area_px": 2688}}, {"type": "Feature", "geometry": {"type": "Point", "coordinates": [357.87552, 11.63853]}, "properties": {"diam_km": 1.566, "area_px": 549}}, {"type": "Feature", "geometry": {"type": "Point", "coordinates": [358.01423, 11.58757]}, "properties": {"diam_km": 3.363, "area_px": 2533}}, {"type": "Feature", "geometry": {"type": "Point", "coordinates": [358.98454, 11.64146]}, "properties": {"diam_km": 1.14, "area_px": 291}}, {"type": "Feature", "geometry": {"type": "Point", "coordinates": [354.38269, 11.62771]}, "properties": {"diam_km": 1.398, "area_px": 438}}, {"type": "Feature", "geometry": {"type": "Point", "coordinates": [356.47209, 11.58785]}, "properties": {"diam_km": 1.456, "area_px": 475}}, {"type": "Feature", "geometry": {"type": "Point", "coordinates": [357.564, 11.57085]}, "properties": {"diam_km": 2.09, "area_px": 978}}, {"type": "Feature", "geometry": {"type": "Point", "coordinates": [358.79496, 11.58002]}, "properties": {"diam_km": 1.14, "area_px": 291}}, {"type": "Feature", "geometry": {"type": "Point", "coordinates": [358.74315, 11.55367]}, "properties": {"diam_km": 1.946, "area_px": 848}}, {"type": "Feature", "geometry": {"type": "Point", "coordinates": [358.87403, 11.56084]}, "properties": {"diam_km": 1.252, "area_px": 351}}, {"type": "Feature", "geometry": {"type": "Point", "coordinates": [356.97161, 11.52901]}, "properties": {"diam_km": 1.595, "area_px": 570}}, {"type": "Feature", "geometry": {"type": "Point", "coordinates": [356.54454, 11.47673]}, "properties": {"diam_km": 1.509, "area_px": 510}}, {"type": "Feature", "geometry": {"type": "Point", "coordinates": [358.12, 11.44991]}, "properties": {"diam_km": 2.442, "area_px": 1336}}, {"type": "Feature", "geometry": {"type": "Point", "coordinates": [357.82956, 11.47653]}, "properties": {"diam_km": 1.633, "area_px": 597}}, {"type": "Feature", "geometry": {"type": "Point", "coordinates": [357.93291, 11.47893]}, "properties": {"diam_km": 1.601, "area_px": 574}}, {"type": "Feature", "geometry": {"type": "Point", "coordinates": [357.61056, 11.47865]}, "properties": {"diam_km": 1.096, "area_px": 269}}, {"type": "Feature", "geometry": {"type": "Point", "coordinates": [355.57354, 11.46185]}, "properties": {"diam_km": 1.657, "area_px": 615}}, {"type": "Feature", "geometry": {"type": "Point", "coordinates": [357.36181, 11.46938]}, "properties": {"diam_km": 1.086, "area_px": 264}}, {"type": "Feature", "geometry": {"type": "Point", "coordinates": [358.01741, 11.46553]}, "properties": {"diam_km": 1.005, "area_px": 226}}, {"type": "Feature", "geometry": {"type": "Point", "coordinates": [356.84584, 11.44653]}, "properties": {"diam_km": 2.016, "area_px": 910}}, {"type": "Feature", "geometry": {"type": "Point", "coordinates": [357.42393, 11.44991]}, "properties": {"diam_km": 1.212, "area_px": 329}}, {"type": "Feature", "geometry": {"type": "Point", "coordinates": [357.73089, 11.43983]}, "properties": {"diam_km": 1.597, "area_px": 571}}, {"type": "Feature", "geometry": {"type": "Point", "coordinates": [358.90007, 11.44262]}, "properties": {"diam_km": 1.25, "area_px": 350}}, {"type": "Feature", "geometry": {"type": "Point", "coordinates": [358.43582, 11.39797]}, "properties": {"diam_km": 2.522, "area_px": 1425}}, {"type": "Feature", "geometry": {"type": "Point", "coordinates": [358.03927, 11.39033]}, "properties": {"diam_km": 1.782, "area_px": 711}}, {"type": "Feature", "geometry": {"type": "Point", "coordinates": [353.46475, 11.37887]}, "properties": {"diam_km": 2.268, "area_px": 1152}}, {"type": "Feature", "geometry": {"type": "Point", "coordinates": [355.98183, 11.39453]}, "properties": {"diam_km": 1.018, "area_px": 232}}, {"type": "Feature", "geometry": {"type": "Point", "coordinates": [355.79672, 11.34602]}, "properties": {"diam_km": 2.169, "area_px": 1054}}, {"type": "Feature", "geometry": {"type": "Point", "coordinates": [358.64181, 11.36196]}, "properties": {"diam_km": 1.622, "area_px": 589}}, {"type": "Feature", "geometry": {"type": "Point", "coordinates": [354.05242, 11.34538]}, "properties": {"diam_km": 1.007, "area_px": 227}}, {"type": "Feature", "geometry": {"type": "Point", "coordinates": [357.91122, 11.32188]}, "properties": {"diam_km": 1.948, "area_px": 850}}, {"type": "Feature", "geometry": {"type": "Point", "coordinates": [358.52358, 11.30874]}, "properties": {"diam_km": 2.136, "area_px": 1022}}, {"type": "Feature", "geometry": {"type": "Point", "coordinates": [357.57177, 11.31454]}, "properties": {"diam_km": 1.948, "area_px": 850}}, {"type": "Feature", "geometry": {"type": "Point", "coordinates": [353.90726, 11.32061]}, "properties": {"diam_km": 1.057, "area_px": 250}}, {"type": "Feature", "geometry": {"type": "Point", "coordinates": [357.3172, 11.3119]}, "properties": {"diam_km": 1.263, "area_px": 357}}, {"type": "Feature", "geometry": {"type": "Point", "coordinates": [358.81587, 11.26798]}, "properties": {"diam_km": 3.498, "area_px": 2740}}, {"type": "Feature", "geometry": {"type": "Point", "coordinates": [356.40498, 11.26146]}, "properties": {"diam_km": 1.726, "area_px": 667}}, {"type": "Feature", "geometry": {"type": "Point", "coordinates": [357.02082, 11.26089]}, "properties": {"diam_km": 1.583, "area_px": 561}}, {"type": "Feature", "geometry": {"type": "Point", "coordinates": [357.53543, 11.26409]}, "properties": {"diam_km": 1.188, "area_px": 316}}, {"type": "Feature", "geometry": {"type": "Point", "coordinates": [355.52169, 11.25147]}, "properties": {"diam_km": 1.519, "area_px": 517}}, {"type": "Feature", "geometry": {"type": "Point", "coordinates": [356.33538, 11.2589]}, "properties": {"diam_km": 1.214, "area_px": 330}}, {"type": "Feature", "geometry": {"type": "Point", "coordinates": [357.90664, 11.24882]}, "properties": {"diam_km": 1.328, "area_px": 395}}, {"type": "Feature", "geometry": {"type": "Point", "coordinates": [353.68307, 11.24518]}, "properties": {"diam_km": 1.398, "area_px": 438}}, {"type": "Feature", "geometry": {"type": "Point", "coordinates": [358.53105, 11.23996]}, "properties": {"diam_km": 1.255, "area_px": 353}}, {"type": "Feature", "geometry": {"type": "Point", "coordinates": [358.12357, 11.23269]}, "properties": {"diam_km": 1.496, "area_px": 501}}, {"type": "Feature", "geometry": {"type": "Point", "coordinates": [357.34549, 11.18632]}, "properties": {"diam_km": 2.334, "area_px": 1220}}, {"type": "Feature", "geometry": {"type": "Point", "coordinates": [355.926, 11.21254]}, "properties": {"diam_km": 1.031, "area_px": 238}}, {"type": "Feature", "geometry": {"type": "Point", "coordinates": [357.25326, 11.12675]}, "properties": {"diam_km": 2.007, "area_px": 902}}, {"type": "Feature", "geometry": {"type": "Point", "coordinates": [355.61215, 11.12248]}, "properties": {"diam_km": 2.528, "area_px": 1431}}, {"type": "Feature", "geometry": {"type": "Point", "coordinates": [356.87631, 11.1289]}, "properties": {"diam_km": 1.326, "area_px": 394}}, {"type": "Feature", "geometry": {"type": "Point", "coordinates": [356.28888, 11.12108]}, "properties": {"diam_km": 1.186, "area_px": 315}}, {"type": "Feature", "geometry": {"type": "Point", "coordinates": [357.57536, 11.11068]}, "properties": {"diam_km": 1.0, "area_px": 224}}, {"type": "Feature", "geometry": {"type": "Point", "coordinates": [354.65189, 11.08595]}, "properties": {"diam_km": 1.598, "area_px": 572}}, {"type": "Feature", "geometry": {"type": "Point", "coordinates": [355.08439, 11.08702]}, "properties": {"diam_km": 1.461, "area_px": 478}}, {"type": "Feature", "geometry": {"type": "Point", "coordinates": [356.70594, 11.08504]}, "properties": {"diam_km": 1.373, "area_px": 422}}, {"type": "Feature", "geometry": {"type": "Point", "coordinates": [356.56897, 11.08225]}, "properties": {"diam_km": 1.024, "area_px": 235}}, {"type": "Feature", "geometry": {"type": "Point", "coordinates": [357.61196, 11.0653]}, "properties": {"diam_km": 1.343, "area_px": 404}}, {"type": "Feature", "geometry": {"type": "Point", "coordinates": [356.51792, 11.06709]}, "properties": {"diam_km": 1.039, "area_px": 242}}, {"type": "Feature", "geometry": {"type": "Point", "coordinates": [358.06309, 11.05202]}, "properties": {"diam_km": 1.688, "area_px": 638}}, {"type": "Feature", "geometry": {"type": "Point", "coordinates": [356.96791, 11.04073]}, "properties": {"diam_km": 1.481, "area_px": 491}}, {"type": "Feature", "geometry": {"type": "Point", "coordinates": [356.09736, 11.02064]}, "properties": {"diam_km": 2.272, "area_px": 1156}}, {"type": "Feature", "geometry": {"type": "Point", "coordinates": [357.61328, 10.98109]}, "properties": {"diam_km": 1.571, "area_px": 553}}, {"type": "Feature", "geometry": {"type": "Point", "coordinates": [358.63466, 10.96445]}, "properties": {"diam_km": 2.12, "area_px": 1007}}, {"type": "Feature", "geometry": {"type": "Point", "coordinates": [356.1561, 10.96856]}, "properties": {"diam_km": 1.122, "area_px": 282}}, {"type": "Feature", "geometry": {"type": "Point", "coordinates": [354.34269, 10.95971]}, "properties": {"diam_km": 1.987, "area_px": 884}}, {"type": "Feature", "geometry": {"type": "Point", "coordinates": [358.78411, 10.9685]}, "properties": {"diam_km": 1.422, "area_px": 453}}, {"type": "Feature", "geometry": {"type": "Point", "coordinates": [357.12031, 10.95682]}, "properties": {"diam_km": 1.255, "area_px": 353}}, {"type": "Feature", "geometry": {"type": "Point", "coordinates": [358.35521, 10.94826]}, "properties": {"diam_km": 1.709, "area_px": 654}}, {"type": "Feature", "geometry": {"type": "Point", "coordinates": [354.16703, 10.93394]}, "properties": {"diam_km": 1.992, "area_px": 889}}, {"type": "Feature", "geometry": {"type": "Point", "coordinates": [357.89134, 10.84314]}, "properties": {"diam_km": 4.564, "area_px": 4666}}, {"type": "Feature", "geometry": {"type": "Point", "coordinates": [358.12251, 10.92749]}, "properties": {"diam_km": 1.027, "area_px": 236}}, {"type": "Feature", "geometry": {"type": "Point", "coordinates": [357.54476, 10.91005]}, "properties": {"diam_km": 1.374, "area_px": 423}}, {"type": "Feature", "geometry": {"type": "Point", "coordinates": [357.44472, 10.90266]}, "properties": {"diam_km": 1.475, "area_px": 487}}, {"type": "Feature", "geometry": {"type": "Point", "coordinates": [357.08675, 10.88646]}, "properties": {"diam_km": 2.082, "area_px": 971}}, {"type": "Feature", "geometry": {"type": "Point", "coordinates": [355.57671, 10.885]}, "properties": {"diam_km": 1.13, "area_px": 286}}, {"type": "Feature", "geometry": {"type": "Point", "coordinates": [358.60521, 10.85218]}, "properties": {"diam_km": 2.062, "area_px": 952}}, {"type": "Feature", "geometry": {"type": "Point", "coordinates": [357.43778, 10.84363]}, "properties": {"diam_km": 1.159, "area_px": 301}}, {"type": "Feature", "geometry": {"type": "Point", "coordinates": [357.34632, 10.83009]}, "properties": {"diam_km": 1.613, "area_px": 583}}, {"type": "Feature", "geometry": {"type": "Point", "coordinates": [358.39688, 10.82344]}, "properties": {"diam_km": 1.645, "area_px": 606}}, {"type": "Feature", "geometry": {"type": "Point", "coordinates": [357.64275, 10.82175]}, "properties": {"diam_km": 1.23, "area_px": 339}}, {"type": "Feature", "geometry": {"type": "Point", "coordinates": [355.74733, 10.81352]}, "properties": {"diam_km": 1.247, "area_px": 348}}, {"type": "Feature", "geometry": {"type": "Point", "coordinates": [358.89447, 10.79218]}, "properties": {"diam_km": 2.004, "area_px": 899}}, {"type": "Feature", "geometry": {"type": "Point", "coordinates": [358.77692, 10.8036]}, "properties": {"diam_km": 1.462, "area_px": 479}}, {"type": "Feature", "geometry": {"type": "Point", "coordinates": [357.29193, 10.81045]}, "properties": {"diam_km": 1.0, "area_px": 224}}, {"type": "Feature", "geometry": {"type": "Point", "coordinates": [358.18033, 10.76774]}, "properties": {"diam_km": 1.759, "area_px": 693}}, {"type": "Feature", "geometry": {"type": "Point", "coordinates": [354.42484, 10.72288]}, "properties": {"diam_km": 2.065, "area_px": 955}}, {"type": "Feature", "geometry": {"type": "Point", "coordinates": [357.64121, 10.73123]}, "properties": {"diam_km": 2.381, "area_px": 1270}}, {"type": "Feature", "geometry": {"type": "Point", "coordinates": [358.70289, 10.74651]}, "properties": {"diam_km": 1.212, "area_px": 329}}, {"type": "Feature", "geometry": {"type": "Point", "coordinates": [357.73781, 10.74087]}, "properties": {"diam_km": 1.336, "area_px": 400}}, {"type": "Feature", "geometry": {"type": "Point", "coordinates": [358.53761, 10.73139]}, "properties": {"diam_km": 1.505, "area_px": 507}}, {"type": "Feature", "geometry": {"type": "Point", "coordinates": [357.41582, 10.7088]}, "properties": {"diam_km": 1.496, "area_px": 501}}, {"type": "Feature", "geometry": {"type": "Point", "coordinates": [357.83257, 10.70899]}, "properties": {"diam_km": 1.046, "area_px": 245}}, {"type": "Feature", "geometry": {"type": "Point", "coordinates": [358.02877, 10.68]}, "properties": {"diam_km": 1.641, "area_px": 603}}, {"type": "Feature", "geometry": {"type": "Point", "coordinates": [357.58015, 10.68763]}, "properties": {"diam_km": 1.453, "area_px": 473}}, {"type": "Feature", "geometry": {"type": "Point", "coordinates": [357.14539, 10.63714]}, "properties": {"diam_km": 3.418, "area_px": 2617}}, {"type": "Feature", "geometry": {"type": "Point", "coordinates": [353.64308, 10.68459]}, "properties": {"diam_km": 2.191, "area_px": 1075}}, {"type": "Feature", "geometry": {"type": "Point", "coordinates": [358.65216, 10.65954]}, "properties": {"diam_km": 1.68, "area_px": 632}}, {"type": "Feature", "geometry": {"type": "Point", "coordinates": [358.29802, 10.66242]}, "properties": {"diam_km": 1.212, "area_px": 329}}, {"type": "Feature", "geometry": {"type": "Point", "coordinates": [357.40823, 10.63449]}, "properties": {"diam_km": 1.939, "area_px": 842}}, {"type": "Feature", "geometry": {"type": "Point", "coordinates": [357.26563, 10.64165]}, "properties": {"diam_km": 1.497, "area_px": 502}}, {"type": "Feature", "geometry": {"type": "Point", "coordinates": [355.60174, 10.61038]}, "properties": {"diam_km": 3.24, "area_px": 2351}}, {"type": "Feature", "geometry": {"type": "Point", "coordinates": [357.71103, 10.59548]}, "properties": {"diam_km": 3.559, "area_px": 2836}}, {"type": "Feature", "geometry": {"type": "Point", "coordinates": [356.86627, 10.62387]}, "properties": {"diam_km": 1.519, "area_px": 517}}, {"type": "Feature", "geometry": {"type": "Point", "coordinates": [355.07203, 10.56599]}, "properties": {"diam_km": 3.38, "area_px": 2559}}, {"type": "Feature", "geometry": {"type": "Point", "coordinates": [357.61076, 10.60314]}, "properties": {"diam_km": 1.292, "area_px": 374}}, {"type": "Feature", "geometry": {"type": "Point", "coordinates": [357.92181, 10.59863]}, "properties": {"diam_km": 1.263, "area_px": 357}}, {"type": "Feature", "geometry": {"type": "Point", "coordinates": [358.57302, 10.58925]}, "properties": {"diam_km": 1.142, "area_px": 292}}, {"type": "Feature", "geometry": {"type": "Point", "coordinates": [358.42543, 10.57366]}, "properties": {"diam_km": 1.615, "area_px": 584}}, {"type": "Feature", "geometry": {"type": "Point", "coordinates": [357.42604, 10.53864]}, "properties": {"diam_km": 2.182, "area_px": 1066}}, {"type": "Feature", "geometry": {"type": "Point", "coordinates": [354.92, 10.54776]}, "properties": {"diam_km": 1.365, "area_px": 417}}, {"type": "Feature", "geometry": {"type": "Point", "coordinates": [358.8444, 10.55035]}, "properties": {"diam_km": 1.132, "area_px": 287}}, {"type": "Feature", "geometry": {"type": "Point", "coordinates": [355.87745, 10.52078]}, "properties": {"diam_km": 1.35, "area_px": 408}}, {"type": "Feature", "geometry": {"type": "Point", "coordinates": [354.77996, 10.45945]}, "properties": {"diam_km": 3.755, "area_px": 3158}}, {"type": "Feature", "geometry": {"type": "Point", "coordinates": [358.9002, 10.51675]}, "properties": {"diam_km": 1.206, "area_px": 326}}, {"type": "Feature", "geometry": {"type": "Point", "coordinates": [353.00704, 10.46072]}, "properties": {"diam_km": 1.126, "area_px": 284}}, {"type": "Feature", "geometry": {"type": "Point", "coordinates": [355.68618, 10.48634]}, "properties": {"diam_km": 1.134, "area_px": 288}}, {"type": "Feature", "geometry": {"type": "Point", "coordinates": [356.8253, 10.47523]}, "properties": {"diam_km": 2.061, "area_px": 951}}, {"type": "Feature", "geometry": {"type": "Point", "coordinates": [358.90763, 10.48788]}, "properties": {"diam_km": 1.11, "area_px": 276}}, {"type": "Feature", "geometry": {"type": "Point", "coordinates": [358.16259, 10.46805]}, "properties": {"diam_km": 1.698, "area_px": 646}}, {"type": "Feature", "geometry": {"type": "Point", "coordinates": [355.56204, 10.4636]}, "properties": {"diam_km": 1.306, "area_px": 382}}, {"type": "Feature", "geometry": {"type": "Point", "coordinates": [355.42131, 10.43305]}, "properties": {"diam_km": 2.482, "area_px": 1380}}, {"type": "Feature", "geometry": {"type": "Point", "coordinates": [357.71301, 10.42159]}, "properties": {"diam_km": 4.473, "area_px": 4481}}, {"type": "Feature", "geometry": {"type": "Point", "coordinates": [356.92825, 10.42491]}, "properties": {"diam_km": 3.152, "area_px": 2225}}, {"type": "Feature", "geometry": {"type": "Point", "coordinates": [355.91829, 10.44802]}, "properties": {"diam_km": 1.559, "area_px": 544}}, {"type": "Feature", "geometry": {"type": "Point", "coordinates": [357.04196, 10.44672]}, "properties": {"diam_km": 2.03, "area_px": 923}}, {"type": "Feature", "geometry": {"type": "Point", "coordinates": [355.20945, 10.45389]}, "properties": {"diam_km": 1.175, "area_px": 309}}, {"type": "Feature", "geometry": {"type": "Point", "coordinates": [358.91378, 10.43438]}, "properties": {"diam_km": 1.138, "area_px": 290}}, {"type": "Feature", "geometry": {"type": "Point", "coordinates": [354.90951, 10.39793]}, "properties": {"diam_km": 2.406, "area_px": 1297}}, {"type": "Feature", "geometry": {"type": "Point", "coordinates": [355.02853, 10.42399]}, "properties": {"diam_km": 1.516, "area_px": 515}}, {"type": "Feature", "geometry": {"type": "Point", "coordinates": [357.98373, 10.4112]}, "properties": {"diam_km": 1.315, "area_px": 387}}, {"type": "Feature", "geometry": {"type": "Point", "coordinates": [357.8868, 10.3938]}, "properties": {"diam_km": 1.556, "area_px": 542}}, {"type": "Feature", "geometry": {"type": "Point", "coordinates": [355.31642, 10.37111]}, "properties": {"diam_km": 2.061, "area_px": 951}}, {"type": "Feature", "geometry": {"type": "Point", "coordinates": [358.95476, 10.35624]}, "properties": {"diam_km": 2.102, "area_px": 990}}, {"type": "Feature", "geometry": {"type": "Point", "coordinates": [355.52433, 10.35713]}, "properties": {"diam_km": 1.673, "area_px": 627}}, {"type": "Feature", "geometry": {"type": "Point", "coordinates": [354.60296, 10.33996]}, "properties": {"diam_km": 2.2, "area_px": 1084}}, {"type": "Feature", "geometry": {"type": "Point", "coordinates": [358.19333, 10.33691]}, "properties": {"diam_km": 2.839, "area_px": 1805}}, {"type": "Feature", "geometry": {"type": "Point", "coordinates": [354.98568, 10.34995]}, "properties": {"diam_km": 1.134, "area_px": 288}}, {"type": "Feature", "geometry": {"type": "Point", "coordinates": [355.01661, 10.35031]}, "properties": {"diam_km": 1.136, "area_px": 289}}, {"type": "Feature", "geometry": {"type": "Point", "coordinates": [355.41845, 10.33562]}, "properties": {"diam_km": 1.583, "area_px": 561}}, {"type": "Feature", "geometry": {"type": "Point", "coordinates": [358.90084, 10.33627]}, "properties": {"diam_km": 1.205, "area_px": 325}}, {"type": "Feature", "geometry": {"type": "Point", "coordinates": [357.43955, 10.2716]}, "properties": {"diam_km": 3.672, "area_px": 3020}}, {"type": "Feature", "geometry": {"type": "Point", "coordinates": [356.4401, 10.32202]}, "properties": {"diam_km": 1.745, "area_px": 682}}, {"type": "Feature", "geometry": {"type": "Point", "coordinates": [358.64061, 10.32633]}, "properties": {"diam_km": 1.306, "area_px": 382}}, {"type": "Feature", "geometry": {"type": "Point", "coordinates": [358.83473, 10.32757]}, "properties": {"diam_km": 1.308, "area_px": 383}}, {"type": "Feature", "geometry": {"type": "Point", "coordinates": [354.46571, 10.31593]}, "properties": {"diam_km": 1.216, "area_px": 331}}, {"type": "Feature", "geometry": {"type": "Point", "coordinates": [357.05065, 10.32152]}, "properties": {"diam_km": 1.069, "area_px": 256}}, {"type": "Feature", "geometry": {"type": "Point", "coordinates": [357.70004, 10.29027]}, "properties": {"diam_km": 2.479, "area_px": 1376}}, {"type": "Feature", "geometry": {"type": "Point", "coordinates": [357.16782, 10.29491]}, "properties": {"diam_km": 2.17, "area_px": 1055}}, {"type": "Feature", "geometry": {"type": "Point", "coordinates": [358.93116, 10.2619]}, "properties": {"diam_km": 2.281, "area_px": 1165}}, {"type": "Feature", "geometry": {"type": "Point", "coordinates": [355.53429, 10.28322]}, "properties": {"diam_km": 1.751, "area_px": 687}}, {"type": "Feature", "geometry": {"type": "Point", "coordinates": [355.23357, 10.26047]}, "properties": {"diam_km": 2.628, "area_px": 1547}}, {"type": "Feature", "geometry": {"type": "Point", "coordinates": [355.60323, 10.28728]}, "properties": {"diam_km": 1.264, "area_px": 358}}, {"type": "Feature", "geometry": {"type": "Point", "coordinates": [357.8936, 10.24147]}, "properties": {"diam_km": 1.638, "area_px": 601}}, {"type": "Feature", "geometry": {"type": "Point", "coordinates": [355.88839, 10.24815]}, "properties": {"diam_km": 1.65, "area_px": 610}}, {"type": "Feature", "geometry": {"type": "Point", "coordinates": [357.11505, 10.21497]}, "properties": {"diam_km": 3.053, "area_px": 2088}}, {"type": "Feature", "geometry": {"type": "Point", "coordinates": [355.0733, 10.24415]}, "properties": {"diam_km": 1.118, "area_px": 280}}, {"type": "Feature", "geometry": {"type": "Point", "coordinates": [357.57555, 10.19695]}, "properties": {"diam_km": 3.245, "area_px": 2359}}, {"type": "Feature", "geometry": {"type": "Point", "coordinates": [355.31094, 10.24188]}, "properties": {"diam_km": 1.022, "area_px": 234}}, {"type": "Feature", "geometry": {"type": "Point", "coordinates": [356.21503, 10.2272]}, "properties": {"diam_km": 1.702, "area_px": 649}}, {"type": "Feature", "geometry": {"type": "Point", "coordinates": [355.80466, 10.20467]}, "properties": {"diam_km": 2.243, "area_px": 1127}}, {"type": "Feature", "geometry": {"type": "Point", "coordinates": [354.75491, 10.19429]}, "properties": {"diam_km": 2.384, "area_px": 1273}}, {"type": "Feature", "geometry": {"type": "Point", "coordinates": [357.77179, 10.16949]}, "properties": {"diam_km": 3.175, "area_px": 2258}}, {"type": "Feature", "geometry": {"type": "Point", "coordinates": [355.67098, 10.18402]}, "properties": {"diam_km": 2.644, "area_px": 1566}}, {"type": "Feature", "geometry": {"type": "Point", "coordinates": [358.47878, 10.21028]}, "properties": {"diam_km": 1.323, "area_px": 392}}, {"type": "Feature", "geometry": {"type": "Point", "coordinates": [358.55601, 10.20119]}, "properties": {"diam_km": 1.733, "area_px": 673}}, {"type": "Feature", "geometry": {"type": "Point", "coordinates": [356.48931, 10.19002]}, "properties": {"diam_km": 1.864, "area_px": 778}}, {"type": "Feature", "geometry": {"type": "Point", "coordinates": [355.5543, 10.19254]}, "properties": {"diam_km": 1.039, "area_px": 242}}, {"type": "Feature", "geometry": {"type": "Point", "coordinates": [358.11966, 10.1855]}, "properties": {"diam_km": 1.048, "area_px": 246}}, {"type": "Feature", "geometry": {"type": "Point", "coordinates": [357.24505, 10.17077]}, "properties": {"diam_km": 1.564, "area_px": 548}}, {"type": "Feature", "geometry": {"type": "Point", "coordinates": [354.44318, 10.16824]}, "properties": {"diam_km": 1.214, "area_px": 330}}, {"type": "Feature", "geometry": {"type": "Point", "coordinates": [357.68449, 10.16506]}, "properties": {"diam_km": 1.096, "area_px": 269}}, {"type": "Feature", "geometry": {"type": "Point", "coordinates": [353.56192, 10.15232]}, "properties": {"diam_km": 1.462, "area_px": 479}}, {"type": "Feature", "geometry": {"type": "Point", "coordinates": [355.17049, 10.13322]}, "properties": {"diam_km": 2.143, "area_px": 1029}}, {"type": "Feature", "geometry": {"type": "Point", "coordinates": [355.45638, 10.15403]}, "properties": {"diam_km": 1.4, "area_px": 439}}, {"type": "Feature", "geometry": {"type": "Point", "coordinates": [355.5496, 10.14524]}, "properties": {"diam_km": 1.551, "area_px": 539}}, {"type": "Feature", "geometry": {"type": "Point", "coordinates": [355.90109, 10.15133]}, "properties": {"diam_km": 1.013, "area_px": 230}}, {"type": "Feature", "geometry": {"type": "Point", "coordinates": [357.05125, 10.13864]}, "properties": {"diam_km": 2.116, "area_px": 1003}}, {"type": "Feature", "geometry": {"type": "Point", "coordinates": [355.32435, 10.12963]}, "properties": {"diam_km": 1.957, "area_px": 858}}, {"type": "Feature", "geometry": {"type": "Point", "coordinates": [358.89157, 10.13002]}, "properties": {"diam_km": 1.282, "area_px": 368}}, {"type": "Feature", "geometry": {"type": "Point", "coordinates": [355.65471, 10.09766]}, "properties": {"diam_km": 2.35, "area_px": 1237}}, {"type": "Feature", "geometry": {"type": "Point", "coordinates": [353.5186, 10.11501]}, "properties": {"diam_km": 1.456, "area_px": 475}}, {"type": "Feature", "geometry": {"type": "Point", "coordinates": [355.94312, 10.11359]}, "properties": {"diam_km": 1.328, "area_px": 395}}, {"type": "Feature", "geometry": {"type": "Point", "coordinates": [358.18605, 10.06666]}, "properties": {"diam_km": 2.337, "area_px": 1223}}, {"type": "Feature", "geometry": {"type": "Point", "coordinates": [357.32017, 10.06514]}, "properties": {"diam_km": 2.585, "area_px": 1496}}, {"type": "Feature", "geometry": {"type": "Point", "coordinates": [357.19623, 10.08549]}, "properties": {"diam_km": 1.869, "area_px": 782}}, {"type": "Feature", "geometry": {"type": "Point", "coordinates": [353.64449, 10.08582]}, "properties": {"diam_km": 1.635, "area_px": 599}}, {"type": "Feature", "geometry": {"type": "Point", "coordinates": [355.90846, 10.08324]}, "properties": {"diam_km": 1.142, "area_px": 292}}, {"type": "Feature", "geometry": {"type": "Point", "coordinates": [354.8573, 10.06887]}, "properties": {"diam_km": 1.755, "area_px": 690}}, {"type": "Feature", "geometry": {"type": "Point", "coordinates": [355.06374, 10.0617]}, "properties": {"diam_km": 1.325, "area_px": 393}}, {"type": "Feature", "geometry": {"type": "Point", "coordinates": [355.98451, 10.06043]}, "properties": {"diam_km": 1.175, "area_px": 309}}, {"type": "Feature", "geometry": {"type": "Point", "coordinates": [355.80813, 10.05976]}, "properties": {"diam_km": 1.248, "area_px": 349}}, {"type": "Feature", "geometry": {"type": "Point", "coordinates": [355.1346, 10.03093]}, "properties": {"diam_km": 1.818, "area_px": 740}}, {"type": "Feature", "geometry": {"type": "Point", "coordinates": [355.21796, 10.02973]}, "properties": {"diam_km": 1.924, "area_px": 829}}, {"type": "Feature", "geometry": {"type": "Point", "coordinates": [356.02894, 10.02791]}, "properties": {"diam_km": 1.735, "area_px": 674}}, {"type": "Feature", "geometry": {"type": "Point", "coordinates": [355.75605, 10.02361]}, "properties": {"diam_km": 1.662, "area_px": 619}}, {"type": "Feature", "geometry": {"type": "Point", "coordinates": [357.65646, 10.02299]}, "properties": {"diam_km": 1.622, "area_px": 589}}, {"type": "Feature", "geometry": {"type": "Point", "coordinates": [354.79989, 10.02176]}, "properties": {"diam_km": 1.275, "area_px": 364}}, {"type": "Feature", "geometry": {"type": "Point", "coordinates": [353.52127, 10.02066]}, "properties": {"diam_km": 1.171, "area_px": 307}}, {"type": "Feature", "geometry": {"type": "Point", "coordinates": [353.58646, 9.98459]}, "properties": {"diam_km": 1.416, "area_px": 449}}, {"type": "Feature", "geometry": {"type": "Point", "coordinates": [357.2839, 9.91436]}, "properties": {"diam_km": 4.036, "area_px": 3648}}, {"type": "Feature", "geometry": {"type": "Point", "coordinates": [357.45677, 9.97648]}, "properties": {"diam_km": 1.355, "area_px": 411}}, {"type": "Feature", "geometry": {"type": "Point", "coordinates": [357.40535, 9.96312]}, "properties": {"diam_km": 1.458, "area_px": 476}}, {"type": "Feature", "geometry": {"type": "Point", "coordinates": [357.14937, 9.97113]}, "properties": {"diam_km": 1.531, "area_px": 525}}, {"type": "Feature", "geometry": {"type": "Point", "coordinates": [357.53689, 9.93033]}, "properties": {"diam_km": 2.833, "area_px": 1797}}, {"type": "Feature", "geometry": {"type": "Point", "coordinates": [355.42199, 9.95617]}, "properties": {"diam_km": 1.623, "area_px": 590}}, {"type": "Feature", "geometry": {"type": "Point", "coordinates": [355.56613, 9.93417]}, "properties": {"diam_km": 1.92, "area_px": 826}}, {"type": "Feature", "geometry": {"type": "Point", "coordinates": [353.28414, 9.9413]}, "properties": {"diam_km": 1.616, "area_px": 585}}, {"type": "Feature", "geometry": {"type": "Point", "coordinates": [355.32074, 9.87585]}, "properties": {"diam_km": 3.294, "area_px": 2430}}, {"type": "Feature", "geometry": {"type": "Point", "coordinates": [354.56031, 9.93196]}, "properties": {"diam_km": 1.1, "area_px": 271}}, {"type": "Feature", "geometry": {"type": "Point", "coordinates": [358.14162, 9.9241]}, "properties": {"diam_km": 1.432, "area_px": 459}}, {"type": "Feature", "geometry": {"type": "Point", "coordinates": [355.68038, 9.91301]}, "properties": {"diam_km": 2.436, "area_px": 1329}}, {"type": "Feature", "geometry": {"type": "Point", "coordinates": [358.89965, 9.90409]}, "properties": {"diam_km": 2.002, "area_px": 898}}, {"type": "Feature", "geometry": {"type": "Point", "coordinates": [357.16685, 9.90017]}, "properties": {"diam_km": 1.554, "area_px": 541}}, {"type": "Feature", "geometry": {"type": "Point", "coordinates": [356.4364, 9.89796]}, "properties": {"diam_km": 1.094, "area_px": 268}}, {"type": "Feature", "geometry": {"type": "Point", "coordinates": [355.63906, 9.83351]}, "properties": {"diam_km": 1.932, "area_px": 836}}, {"type": "Feature", "geometry": {"type": "Point", "coordinates": [358.55195, 9.84152]}, "properties": {"diam_km": 1.421, "area_px": 452}}, {"type": "Feature", "geometry": {"type": "Point", "coordinates": [355.51525, 9.82602]}, "properties": {"diam_km": 1.029, "area_px": 237}}, {"type": "Feature", "geometry": {"type": "Point", "coordinates": [354.07902, 9.80222]}, "properties": {"diam_km": 1.992, "area_px": 889}}, {"type": "Feature", "geometry": {"type": "Point", "coordinates": [357.31379, 9.79836]}, "properties": {"diam_km": 2.222, "area_px": 1106}}, {"type": "Feature", "geometry": {"type": "Point", "coordinates": [355.93228, 9.73376]}, "properties": {"diam_km": 4.303, "area_px": 4147}}, {"type": "Feature", "geometry": {"type": "Point", "coordinates": [357.97017, 9.80516]}, "properties": {"diam_km": 1.427, "area_px": 456}}, {"type": "Feature", "geometry": {"type": "Point", "coordinates": [357.84272, 9.79708]}, "properties": {"diam_km": 1.428, "area_px": 457}}, {"type": "Feature", "geometry": {"type": "Point", "coordinates": [358.05586, 9.79909]}, "properties": {"diam_km": 1.178, "area_px": 311}}, {"type": "Feature", "geometry": {"type": "Point", "coordinates": [354.41947, 9.77832]}, "properties": {"diam_km": 1.618, "area_px": 586}}, {"type": "Feature", "geometry": {"type": "Point", "coordinates": [354.11918, 9.74816]}, "properties": {"diam_km": 1.765, "area_px": 698}}, {"type": "Feature", "geometry": {"type": "Point", "coordinates": [357.63066, 9.74649]}, "properties": {"diam_km": 1.069, "area_px": 256}}, {"type": "Feature", "geometry": {"type": "Point", "coordinates": [356.07397, 9.70782]}, "properties": {"diam_km": 1.43, "area_px": 458}}, {"type": "Feature", "geometry": {"type": "Point", "coordinates": [358.03097, 9.70573]}, "properties": {"diam_km": 1.313, "area_px": 386}}, {"type": "Feature", "geometry": {"type": "Point", "coordinates": [355.76396, 9.70262]}, "properties": {"diam_km": 1.188, "area_px": 316}}, {"type": "Feature", "geometry": {"type": "Point", "coordinates": [357.85221, 9.68635]}, "properties": {"diam_km": 2.095, "area_px": 983}}, {"type": "Feature", "geometry": {"type": "Point", "coordinates": [355.48033, 9.689]}, "properties": {"diam_km": 1.502, "area_px": 505}}, {"type": "Feature", "geometry": {"type": "Point", "coordinates": [357.95754, 9.62215]}, "properties": {"diam_km": 3.407, "area_px": 2599}}, {"type": "Feature", "geometry": {"type": "Point", "coordinates": [355.84576, 9.68044]}, "properties": {"diam_km": 1.414, "area_px": 448}}, {"type": "Feature", "geometry": {"type": "Point", "coordinates": [358.83947, 9.67582]}, "properties": {"diam_km": 1.578, "area_px": 558}}, {"type": "Feature", "geometry": {"type": "Point", "coordinates": [354.5366, 9.66222]}, "properties": {"diam_km": 1.966, "area_px": 866}}, {"type": "Feature", "geometry": {"type": "Point", "coordinates": [357.5881, 9.66307]}, "properties": {"diam_km": 1.593, "area_px": 568}}, {"type": "Feature", "geometry": {"type": "Point", "coordinates": [357.73887, 9.66101]}, "properties": {"diam_km": 1.333, "area_px": 398}}, {"type": "Feature", "geometry": {"type": "Point", "coordinates": [357.51944, 9.65576]}, "properties": {"diam_km": 1.366, "area_px": 418}}, {"type": "Feature", "geometry": {"type": "Point", "coordinates": [358.54195, 9.62875]}, "properties": {"diam_km": 1.661, "area_px": 618}}, {"type": "Feature", "geometry": {"type": "Point", "coordinates": [355.54444, 9.59265]}, "properties": {"diam_km": 2.916, "area_px": 1905}}, {"type": "Feature", "geometry": {"type": "Point", "coordinates": [353.40082, 9.56228]}, "properties": {"diam_km": 1.927, "area_px": 832}}, {"type": "Feature", "geometry": {"type": "Point", "coordinates": [357.8684, 9.57285]}, "properties": {"diam_km": 1.578, "area_px": 558}}, {"type": "Feature", "geometry": {"type": "Point", "coordinates": [358.91786, 9.55603]}, "properties": {"diam_km": 1.836, "area_px": 755}}, {"type": "Feature", "geometry": {"type": "Point", "coordinates": [354.81854, 9.56563]}, "properties": {"diam_km": 1.022, "area_px": 234}}, {"type": "Feature", "geometry": {"type": "Point", "coordinates": [354.04089, 9.53693]}, "properties": {"diam_km": 2.577, "area_px": 1487}}, {"type": "Feature", "geometry": {"type": "Point", "coordinates": [356.34511, 9.54799]}, "properties": {"diam_km": 1.903, "area_px": 811}}, {"type": "Feature", "geometry": {"type": "Point", "coordinates": [358.80796, 9.5609]}, "properties": {"diam_km": 1.126, "area_px": 284}}, {"type": "Feature", "geometry": {"type": "Point", "coordinates": [355.65228, 9.5394]}, "properties": {"diam_km": 1.779, "area_px": 709}}, {"type": "Feature", "geometry": {"type": "Point", "coordinates": [355.4078, 9.54195]}, "properties": {"diam_km": 1.033, "area_px": 239}}, {"type": "Feature", "geometry": {"type": "Point", "coordinates": [357.55014, 9.54511]}, "properties": {"diam_km": 1.108, "area_px": 275}}, {"type": "Feature", "geometry": {"type": "Point", "coordinates": [353.44127, 9.52686]}, "properties": {"diam_km": 1.395, "area_px": 436}}, {"type": "Feature", "geometry": {"type": "Point", "coordinates": [357.73883, 9.52881]}, "properties": {"diam_km": 1.413, "area_px": 447}}, {"type": "Feature", "geometry": {"type": "Point", "coordinates": [358.62523, 9.52828]}, "properties": {"diam_km": 1.405, "area_px": 442}}, {"type": "Feature", "geometry": {"type": "Point", "coordinates": [355.58276, 9.52049]}, "properties": {"diam_km": 1.206, "area_px": 326}}, {"type": "Feature", "geometry": {"type": "Point", "coordinates": [355.27189, 9.51723]}, "properties": {"diam_km": 1.273, "area_px": 363}}, {"type": "Feature", "geometry": {"type": "Point", "coordinates": [355.46494, 9.47991]}, "properties": {"diam_km": 1.644, "area_px": 605}}, {"type": "Feature", "geometry": {"type": "Point", "coordinates": [355.59588, 9.47906]}, "properties": {"diam_km": 2.137, "area_px": 1023}}, {"type": "Feature", "geometry": {"type": "Point", "coordinates": [355.8641, 9.46953]}, "properties": {"diam_km": 2.056, "area_px": 947}}, {"type": "Feature", "geometry": {"type": "Point", "coordinates": [356.15873, 9.46753]}, "properties": {"diam_km": 2.471, "area_px": 1367}}, {"type": "Feature", "geometry": {"type": "Point", "coordinates": [356.34978, 9.47934]}, "properties": {"diam_km": 1.509, "area_px": 510}}, {"type": "Feature", "geometry": {"type": "Point", "coordinates": [355.25517, 9.48226]}, "properties": {"diam_km": 1.238, "area_px": 343}}, {"type": "Feature", "geometry": {"type": "Point", "coordinates": [355.72717, 9.45755]}, "properties": {"diam_km": 2.223, "area_px": 1107}}, {"type": "Feature", "geometry": {"type": "Point", "coordinates": [355.20339, 9.45941]}, "properties": {"diam_km": 1.47, "area_px": 484}}, {"type": "Feature", "geometry": {"type": "Point", "coordinates": [356.01788, 9.45793]}, "properties": {"diam_km": 1.241, "area_px": 345}}, {"type": "Feature", "geometry": {"type": "Point", "coordinates": [358.07289, 9.45895]}, "properties": {"diam_km": 1.155, "area_px": 299}}, {"type": "Feature", "geometry": {"type": "Point", "coordinates": [355.92279, 9.45739]}, "properties": {"diam_km": 1.175, "area_px": 309}}, {"type": "Feature", "geometry": {"type": "Point", "coordinates": [356.27631, 9.43778]}, "properties": {"diam_km": 1.938, "area_px": 841}}, {"type": "Feature", "geometry": {"type": "Point", "coordinates": [357.67383, 9.42284]}, "properties": {"diam_km": 1.741, "area_px": 679}}, {"type": "Feature", "geometry": {"type": "Point", "coordinates": [356.42473, 9.42607]}, "properties": {"diam_km": 2.051, "area_px": 942}}, {"type": "Feature", "geometry": {"type": "Point", "coordinates": [355.25088, 9.36416]}, "properties": {"diam_km": 3.205, "area_px": 2300}}, {"type": "Feature", "geometry": {"type": "Point", "coordinates": [355.78751, 9.37732]}, "properties": {"diam_km": 1.745, "area_px": 682}}, {"type": "Feature", "geometry": {"type": "Point", "coordinates": [357.56817, 9.38304]}, "properties": {"diam_km": 1.788, "area_px": 716}}, {"type": "Feature", "geometry": {"type": "Point", "coordinates": [354.61986, 9.37978]}, "properties": {"diam_km": 1.748, "area_px": 684}}, {"type": "Feature", "geometry": {"type": "Point", "coordinates": [356.36263, 9.37378]}, "properties": {"diam_km": 1.821, "area_px": 743}}, {"type": "Feature", "geometry": {"type": "Point", "coordinates": [354.13583, 9.37205]}, "properties": {"diam_km": 1.965, "area_px": 865}}, {"type": "Feature", "geometry": {"type": "Point", "coordinates": [358.11564, 9.31975]}, "properties": {"diam_km": 4.066, "area_px": 3703}}, {"type": "Feature", "geometry": {"type": "Point", "coordinates": [357.90247, 9.35258]}, "properties": {"diam_km": 2.239, "area_px": 1123}}, {"type": "Feature", "geometry": {"type": "Point", "coordinates": [355.94302, 9.34394]}, "properties": {"diam_km": 2.77, "area_px": 1719}}, {"type": "Feature", "geometry": {"type": "Point", "coordinates": [357.71546, 9.31649]}, "properties": {"diam_km": 4.02, "area_px": 3620}}, {"type": "Feature", "geometry": {"type": "Point", "coordinates": [355.59926, 9.32518]}, "properties": {"diam_km": 2.954, "area_px": 1954}}, {"type": "Feature", "geometry": {"type": "Point", "coordinates": [357.9824, 9.34637]}, "properties": {"diam_km": 1.225, "area_px": 336}}, {"type": "Feature", "geometry": {"type": "Point", "coordinates": [354.06738, 9.34111]}, "properties": {"diam_km": 1.369, "area_px": 420}}, {"type": "Feature", "geometry": {"type": "Point", "coordinates": [354.97763, 9.34378]}, "properties": {"diam_km": 1.273, "area_px": 363}}, {"type": "Feature", "geometry": {"type": "Point", "coordinates": [356.88546, 9.33713]}, "properties": {"diam_km": 1.64, "area_px": 602}}, {"type": "Feature", "geometry": {"type": "Point", "coordinates": [356.98279, 9.33072]}, "properties": {"diam_km": 1.379, "area_px": 426}}, {"type": "Feature", "geometry": {"type": "Point", "coordinates": [355.457, 9.31752]}, "properties": {"diam_km": 1.697, "area_px": 645}}, {"type": "Feature", "geometry": {"type": "Point", "coordinates": [355.75466, 9.31508]}, "properties": {"diam_km": 1.195, "area_px": 320}}, {"type": "Feature", "geometry": {"type": "Point", "coordinates": [354.31069, 9.30588]}, "properties": {"diam_km": 1.128, "area_px": 285}}, {"type": "Feature", "geometry": {"type": "Point", "coordinates": [356.65935, 9.29942]}, "properties": {"diam_km": 1.052, "area_px": 248}}, {"type": "Feature", "geometry": {"type": "Point", "coordinates": [356.26413, 9.27358]}, "properties": {"diam_km": 2.125, "area_px": 1011}}, {"type": "Feature", "geometry": {"type": "Point", "coordinates": [355.97113, 9.28049]}, "properties": {"diam_km": 1.165, "area_px": 304}}, {"type": "Feature", "geometry": {"type": "Point", "coordinates": [356.03606, 9.25985]}, "properties": {"diam_km": 1.754, "area_px": 689}}, {"type": "Feature", "geometry": {"type": "Point", "coordinates": [355.39016, 9.24441]}, "properties": {"diam_km": 1.469, "area_px": 483}}, {"type": "Feature", "geometry": {"type": "Point", "coordinates": [358.29848, 9.24692]}, "properties": {"diam_km": 1.413, "area_px": 447}}, {"type": "Feature", "geometry": {"type": "Point", "coordinates": [357.81942, 9.23826]}, "properties": {"diam_km": 1.576, "area_px": 556}}, {"type": "Feature", "geometry": {"type": "Point", "coordinates": [355.02679, 9.23022]}, "properties": {"diam_km": 1.898, "area_px": 807}}, {"type": "Feature", "geometry": {"type": "Point", "coordinates": [354.09079, 9.22876]}, "properties": {"diam_km": 1.713, "area_px": 657}}, {"type": "Feature", "geometry": {"type": "Point", "coordinates": [355.10238, 9.21804]}, "properties": {"diam_km": 2.079, "area_px": 968}}, {"type": "Feature", "geometry": {"type": "Point", "coordinates": [355.32178, 9.21926]}, "properties": {"diam_km": 1.635, "area_px": 599}}, {"type": "Feature", "geometry": {"type": "Point", "coordinates": [356.37041, 9.22201]}, "properties": {"diam_km": 1.303, "area_px": 380}}, {"type": "Feature", "geometry": {"type": "Point", "coordinates": [355.49047, 9.18008]}, "properties": {"diam_km": 2.31, "area_px": 1195}}, {"type": "Feature", "geometry": {"type": "Point", "coordinates": [355.92077, 9.20057]}, "properties": {"diam_km": 1.112, "area_px": 277}}, {"type": "Feature", "geometry": {"type": "Point", "coordinates": [356.44895, 9.1923]}, "properties": {"diam_km": 1.422, "area_px": 453}}, {"type": "Feature", "geometry": {"type": "Point", "coordinates": [355.60326, 9.10084]}, "properties": {"diam_km": 4.623, "area_px": 4786}}, {"type": "Feature", "geometry": {"type": "Point", "coordinates": [357.81944, 9.18287]}, "properties": {"diam_km": 1.205, "area_px": 325}}, {"type": "Feature", "geometry": {"type": "Point", "coordinates": [358.23262, 9.17043]}, "properties": {"diam_km": 2.001, "area_px": 897}}, {"type": "Feature", "geometry": {"type": "Point", "coordinates": [353.08965, 9.16955]}, "properties": {"diam_km": 1.702, "area_px": 649}}, {"type": "Feature", "geometry": {"type": "Point", "coordinates": [353.26003, 9.14578]}, "properties": {"diam_km": 2.548, "area_px": 1454}}, {"type": "Feature", "geometry": {"type": "Point", "coordinates": [356.77044, 9.14899]}, "properties": {"diam_km": 2.199, "area_px": 1083}}, {"type": "Feature", "geometry": {"type": "Point", "coordinates": [355.33201, 9.15337]}, "properties": {"diam_km": 1.414, "area_px": 448}}, {"type": "Feature", "geometry": {"type": "Point", "coordinates": [354.29469, 9.13509]}, "properties": {"diam_km": 1.136, "area_px": 289}}, {"type": "Feature", "geometry": {"type": "Point", "coordinates": [354.79105, 9.11576]}, "properties": {"diam_km": 1.506, "area_px": 508}}, {"type": "Feature", "geometry": {"type": "Point", "coordinates": [355.42506, 9.07372]}, "properties": {"diam_km": 3.553, "area_px": 2827}}, {"type": "Feature", "geometry": {"type": "Point", "coordinates": [358.89404, 9.0964]}, "properties": {"diam_km": 2.001, "area_px": 897}}, {"type": "Feature", "geometry": {"type": "Point", "coordinates": [358.34725, 9.05681]}, "properties": {"diam_km": 2.881, "area_px": 1859}}, {"type": "Feature", "geometry": {"type": "Point", "coordinates": [358.73057, 9.04741]}, "properties": {"diam_km": 2.462, "area_px": 1358}}, {"type": "Feature", "geometry": {"type": "Point", "coordinates": [358.1015, 9.09224]}, "properties": {"diam_km": 1.009, "area_px": 228}}, {"type": "Feature", "geometry": {"type": "Point", "coordinates": [353.15053, 9.08121]}, "properties": {"diam_km": 1.369, "area_px": 420}}, {"type": "Feature", "geometry": {"type": "Point", "coordinates": [354.72014, 9.07591]}, "properties": {"diam_km": 1.195, "area_px": 320}}, {"type": "Feature", "geometry": {"type": "Point", "coordinates": [355.05817, 9.04461]}, "properties": {"diam_km": 2.257, "area_px": 1141}}, {"type": "Feature", "geometry": {"type": "Point", "coordinates": [354.83764, 9.06608]}, "properties": {"diam_km": 1.341, "area_px": 403}}, {"type": "Feature", "geometry": {"type": "Point", "coordinates": [353.38654, 9.05771]}, "properties": {"diam_km": 1.788, "area_px": 716}}, {"type": "Feature", "geometry": {"type": "Point", "coordinates": [357.63218, 9.04572]}, "properties": {"diam_km": 2.126, "area_px": 1012}}, {"type": "Feature", "geometry": {"type": "Point", "coordinates": [355.85384, 9.05786]}, "properties": {"diam_km": 1.155, "area_px": 299}}, {"type": "Feature", "geometry": {"type": "Point", "coordinates": [356.20718, 9.05118]}, "properties": {"diam_km": 1.23, "area_px": 339}}, {"type": "Feature", "geometry": {"type": "Point", "coordinates": [355.75687, 8.96171]}, "properties": {"diam_km": 4.317, "area_px": 4173}}, {"type": "Feature", "geometry": {"type": "Point", "coordinates": [353.66594, 9.02219]}, "properties": {"diam_km": 1.142, "area_px": 292}}, {"type": "Feature", "geometry": {"type": "Point", "coordinates": [354.8906, 9.02018]}, "properties": {"diam_km": 1.366, "area_px": 418}}, {"type": "Feature", "geometry": {"type": "Point", "coordinates": [353.16819, 8.95486]}, "properties": {"diam_km": 2.268, "area_px": 1152}}, {"type": "Feature", "geometry": {"type": "Point", "coordinates": [355.28156, 8.97548]}, "properties": {"diam_km": 1.809, "area_px": 733}}, {"type": "Feature", "geometry": {"type": "Point", "coordinates": [355.61443, 8.98765]}, "properties": {"diam_km": 1.084, "area_px": 263}}, {"type": "Feature", "geometry": {"type": "Point", "coordinates": [355.85174, 8.98071]}, "properties": {"diam_km": 1.764, "area_px": 697}}, {"type": "Feature", "geometry": {"type": "Point", "coordinates": [356.31842, 8.98054]}, "properties": {"diam_km": 1.622, "area_px": 589}}, {"type": "Feature", "geometry": {"type": "Point", "coordinates": [357.54573, 8.98153]}, "properties": {"diam_km": 1.458, "area_px": 476}}, {"type": "Feature", "geometry": {"type": "Point", "coordinates": [355.39158, 8.92374]}, "properties": {"diam_km": 4.256, "area_px": 4056}}, {"type": "Feature", "geometry": {"type": "Point", "coordinates": [356.4822, 8.97983]}, "properties": {"diam_km": 1.033, "area_px": 239}}, {"type": "Feature", "geometry": {"type": "Point", "coordinates": [356.61953, 8.9569]}, "properties": {"diam_km": 1.046, "area_px": 245}}, {"type": "Feature", "geometry": {"type": "Point", "coordinates": [354.95985, 8.94226]}, "properties": {"diam_km": 1.797, "area_px": 723}}, {"type": "Feature", "geometry": {"type": "Point", "coordinates": [355.51195, 8.93315]}, "properties": {"diam_km": 1.4, "area_px": 439}}, {"type": "Feature", "geometry": {"type": "Point", "coordinates": [353.31944, 8.87691]}, "properties": {"diam_km": 4.011, "area_px": 3604}}, {"type": "Feature", "geometry": {"type": "Point", "coordinates": [353.89794, 8.93185]}, "properties": {"diam_km": 1.398, "area_px": 438}}, {"type": "Feature", "geometry": {"type": "Point", "coordinates": [355.57547, 8.85135]}, "properties": {"diam_km": 4.343, "area_px": 4224}}, {"type": "Feature", "geometry": {"type": "Point", "coordinates": [356.80856, 8.91712]}, "properties": {"diam_km": 1.005, "area_px": 226}}, {"type": "Feature", "geometry": {"type": "Point", "coordinates": [354.87835, 8.88875]}, "properties": {"diam_km": 1.749, "area_px": 685}}, {"type": "Feature", "geometry": {"type": "Point", "coordinates": [353.55728, 8.87342]}, "properties": {"diam_km": 1.197, "area_px": 321}}, {"type": "Feature", "geometry": {"type": "Point", "coordinates": [356.52865, 8.86221]}, "properties": {"diam_km": 1.566, "area_px": 549}}, {"type": "Feature", "geometry": {"type": "Point", "coordinates": [353.13908, 8.84655]}, "properties": {"diam_km": 2.149, "area_px": 1034}}, {"type": "Feature", "geometry": {"type": "Point", "coordinates": [356.18752, 8.84873]}, "properties": {"diam_km": 1.417, "area_px": 450}}, {"type": "Feature", "geometry": {"type": "Point", "coordinates": [353.88531, 8.84052]}, "properties": {"diam_km": 1.586, "area_px": 563}}, {"type": "Feature", "geometry": {"type": "Point", "coordinates": [356.89554, 8.83088]}, "properties": {"diam_km": 2.194, "area_px": 1078}}, {"type": "Feature", "geometry": {"type": "Point", "coordinates": [355.07143, 8.83512]}, "properties": {"diam_km": 1.686, "area_px": 637}}, {"type": "Feature", "geometry": {"type": "Point", "coordinates": [356.33795, 8.8254]}, "properties": {"diam_km": 1.923, "area_px": 828}}, {"type": "Feature", "geometry": {"type": "Point", "coordinates": [354.47599, 8.81086]}, "properties": {"diam_km": 1.484, "area_px": 493}}, {"type": "Feature", "geometry": {"type": "Point", "coordinates": [354.5284, 8.79236]}, "properties": {"diam_km": 1.732, "area_px": 672}}, {"type": "Feature", "geometry": {"type": "Point", "coordinates": [355.323, 8.79322]}, "properties": {"diam_km": 1.201, "area_px": 323}}, {"type": "Feature", "geometry": {"type": "Point", "coordinates": [354.70396, 8.79862]}, "properties": {"diam_km": 1.456, "area_px": 475}}, {"type": "Feature", "geometry": {"type": "Point", "coordinates": [355.69471, 8.79816]}, "properties": {"diam_km": 1.503, "area_px": 506}}, {"type": "Feature", "geometry": {"type": "Point", "coordinates": [354.09516, 8.78588]}, "properties": {"diam_km": 1.872, "area_px": 785}}, {"type": "Feature", "geometry": {"type": "Point", "coordinates": [357.01922, 8.75956]}, "properties": {"diam_km": 2.126, "area_px": 1012}}, {"type": "Feature", "geometry": {"type": "Point", "coordinates": [356.01475, 8.78184]}, "properties": {"diam_km": 1.018, "area_px": 232}}, {"type": "Feature", "geometry": {"type": "Point", "coordinates": [355.64667, 8.74997]}, "properties": {"diam_km": 2.492, "area_px": 1391}}, {"type": "Feature", "geometry": {"type": "Point", "coordinates": [354.64562, 8.78075]}, "properties": {"diam_km": 1.092, "area_px": 267}}, {"type": "Feature", "geometry": {"type": "Point", "coordinates": [355.37502, 8.74745]}, "properties": {"diam_km": 1.664, "area_px": 620}}, {"type": "Feature", "geometry": {"type": "Point", "coordinates": [353.98028, 8.76555]}, "properties": {"diam_km": 1.248, "area_px": 349}}, {"type": "Feature", "geometry": {"type": "Point", "coordinates": [354.80198, 8.76207]}, "properties": {"diam_km": 1.059, "area_px": 251}}, {"type": "Feature", "geometry": {"type": "Point", "coordinates": [357.69068, 8.7541]}, "properties": {"diam_km": 1.649, "area_px": 609}}, {"type": "Feature", "geometry": {"type": "Point", "coordinates": [354.4831, 8.73159]}, "properties": {"diam_km": 1.175, "area_px": 309}}, {"type": "Feature", "geometry": {"type": "Point", "coordinates": [354.60565, 8.71001]}, "properties": {"diam_km": 2.341, "area_px": 1227}}, {"type": "Feature", "geometry": {"type": "Point", "coordinates": [354.5257, 8.72506]}, "properties": {"diam_km": 1.613, "area_px": 583}}, {"type": "Feature", "geometry": {"type": "Point", "coordinates": [354.9189, 8.68566]}, "properties": {"diam_km": 3.546, "area_px": 2816}}, {"type": "Feature", "geometry": {"type": "Point", "coordinates": [355.96106, 8.72422]}, "properties": {"diam_km": 1.186, "area_px": 315}}, {"type": "Feature", "geometry": {"type": "Point", "coordinates": [358.24691, 8.7125]}, "properties": {"diam_km": 1.516, "area_px": 515}}, {"type": "Feature", "geometry": {"type": "Point", "coordinates": [353.38889, 8.69853]}, "properties": {"diam_km": 1.631, "area_px": 596}}, {"type": "Feature", "geometry": {"type": "Point", "coordinates": [358.84003, 8.69792]}, "properties": {"diam_km": 1.63, "area_px": 595}}, {"type": "Feature", "geometry": {"type": "Point", "coordinates": [354.78673, 8.69317]}, "properties": {"diam_km": 1.853, "area_px": 769}}, {"type": "Feature", "geometry": {"type": "Point", "coordinates": [355.43726, 8.68982]}, "properties": {"diam_km": 1.384, "area_px": 429}}, {"type": "Feature", "geometry": {"type": "Point", "coordinates": [353.10664, 8.67447]}, "properties": {"diam_km": 1.933, "area_px": 837}}, {"type": "Feature", "geometry": {"type": "Point", "coordinates": [358.0216, 8.69018]}, "properties": {"diam_km": 1.024, "area_px": 235}}, {"type": "Feature", "geometry": {"type": "Point", "coordinates": [358.40057, 8.68187]}, "properties": {"diam_km": 1.502, "area_px": 505}}, {"type": "Feature", "geometry": {"type": "Point", "coordinates": [355.71476, 8.67396]}, "properties": {"diam_km": 1.823, "area_px": 744}}, {"type": "Feature", "geometry": {"type": "Point", "coordinates": [357.96877, 8.64951]}, "properties": {"diam_km": 2.42, "area_px": 1312}}, {"type": "Feature", "geometry": {"type": "Point", "coordinates": [356.61091, 8.65983]}, "properties": {"diam_km": 1.163, "area_px": 303}}, {"type": "Feature", "geometry": {"type": "Point", "coordinates": [356.15835, 8.65528]}, "properties": {"diam_km": 1.104, "area_px": 273}}, {"type": "Feature", "geometry": {"type": "Point", "coordinates": [355.02321, 8.65268]}, "properties": {"diam_km": 1.009, "area_px": 228}}, {"type": "Feature", "geometry": {"type": "Point", "coordinates": [358.55458, 8.63351]}, "properties": {"diam_km": 2.193, "area_px": 1077}}, {"type": "Feature", "geometry": {"type": "Point", "coordinates": [357.86646, 8.64039]}, "properties": {"diam_km": 1.18, "area_px": 312}}, {"type": "Feature", "geometry": {"type": "Point", "coordinates": [355.64014, 8.58934]}, "properties": {"diam_km": 2.982, "area_px": 1991}}, {"type": "Feature", "geometry": {"type": "Point", "coordinates": [358.65149, 8.6158]}, "properties": {"diam_km": 1.998, "area_px": 894}}, {"type": "Feature", "geometry": {"type": "Point", "coordinates": [353.79872, 8.6115]}, "properties": {"diam_km": 1.009, "area_px": 228}}, {"type": "Feature", "geometry": {"type": "Point", "coordinates": [355.97988, 8.59245]}, "properties": {"diam_km": 1.573, "area_px": 554}}, {"type": "Feature", "geometry": {"type": "Point", "coordinates": [353.87794, 8.55154]}, "properties": {"diam_km": 4.339, "area_px": 4217}}, {"type": "Feature", "geometry": {"type": "Point", "coordinates": [354.85495, 8.59064]}, "properties": {"diam_km": 1.054, "area_px": 249}}, {"type": "Feature", "geometry": {"type": "Point", "coordinates": [355.52953, 8.57443]}, "properties": {"diam_km": 1.809, "area_px": 733}}, {"type": "Feature", "geometry": {"type": "Point", "coordinates": [358.4529, 8.59018]}, "properties": {"diam_km": 1.037, "area_px": 241}}, {"type": "Feature", "geometry": {"type": "Point", "coordinates": [356.22476, 8.54723]}, "properties": {"diam_km": 3.046, "area_px": 2078}}, {"type": "Feature", "geometry": {"type": "Point", "coordinates": [355.38082, 8.55243]}, "properties": {"diam_km": 2.12, "area_px": 1007}}, {"type": "Feature", "geometry": {"type": "Point", "coordinates": [358.37032, 8.55792]}, "properties": {"diam_km": 1.384, "area_px": 429}}, {"type": "Feature", "geometry": {"type": "Point", "coordinates": [356.58765, 8.55564]}, "properties": {"diam_km": 1.427, "area_px": 456}}, {"type": "Feature", "geometry": {"type": "Point", "coordinates": [358.22892, 8.54014]}, "properties": {"diam_km": 1.965, "area_px": 865}}, {"type": "Feature", "geometry": {"type": "Point", "coordinates": [353.20425, 8.5472]}, "properties": {"diam_km": 1.094, "area_px": 268}}, {"type": "Feature", "geometry": {"type": "Point", "coordinates": [353.15029, 8.5414]}, "properties": {"diam_km": 1.193, "area_px": 319}}, {"type": "Feature", "geometry": {"type": "Point", "coordinates": [357.73972, 8.52509]}, "properties": {"diam_km": 1.661, "area_px": 618}}, {"type": "Feature", "geometry": {"type": "Point", "coordinates": [353.01636, 8.52404]}, "properties": {"diam_km": 1.148, "area_px": 295}}, {"type": "Feature", "geometry": {"type": "Point", "coordinates": [353.31349, 8.51951]}, "properties": {"diam_km": 1.287, "area_px": 371}}, {"type": "Feature", "geometry": {"type": "Point", "coordinates": [357.57899, 8.51848]}, "properties": {"diam_km": 1.243, "area_px": 346}}, {"type": "Feature", "geometry": {"type": "Point", "coordinates": [354.12441, 8.48652]}, "properties": {"diam_km": 1.132, "area_px": 287}}, {"type": "Feature", "geometry": {"type": "Point", "coordinates": [355.21737, 8.46498]}, "properties": {"diam_km": 3.031, "area_px": 2058}}, {"type": "Feature", "geometry": {"type": "Point", "coordinates": [355.59156, 8.47527]}, "properties": {"diam_km": 1.987, "area_px": 884}}, {"type": "Feature", "geometry": {"type": "Point", "coordinates": [356.98474, 8.48477]}, "properties": {"diam_km": 1.013, "area_px": 230}}, {"type": "Feature", "geometry": {"type": "Point", "coordinates": [354.0483, 8.48303]}, "properties": {"diam_km": 1.126, "area_px": 284}}, {"type": "Feature", "geometry": {"type": "Point", "coordinates": [356.05857, 8.46917]}, "properties": {"diam_km": 1.848, "area_px": 765}}, {"type": "Feature", "geometry": {"type": "Point", "coordinates": [358.8742, 8.48344]}, "properties": {"diam_km": 1.011, "area_px": 229}}, {"type": "Feature", "geometry": {"type": "Point", "coordinates": [358.11675, 8.46898]}, "properties": {"diam_km": 1.668, "area_px": 623}}, {"type": "Feature", "geometry": {"type": "Point", "coordinates": [355.79747, 8.46583]}, "properties": {"diam_km": 1.57, "area_px": 552}}, {"type": "Feature", "geometry": {"type": "Point", "coordinates": [358.36894, 8.44548]}, "properties": {"diam_km": 2.302, "area_px": 1187}}, {"type": "Feature", "geometry": {"type": "Point", "coordinates": [354.87804, 8.42039]}, "properties": {"diam_km": 4.254, "area_px": 4053}}, {"type": "Feature", "geometry": {"type": "Point", "coordinates": [355.4696, 8.40889]}, "properties": {"diam_km": 2.781, "area_px": 1732}}, {"type": "Feature", "geometry": {"type": "Point", "coordinates": [357.64057, 8.4654]}, "properties": {"diam_km": 1.013, "area_px": 230}}, {"type": "Feature", "geometry": {"type": "Point", "coordinates": [354.58304, 8.46037]}, "properties": {"diam_km": 1.266, "area_px": 359}}, {"type": "Feature", "geometry": {"type": "Point", "coordinates": [353.87853, 8.43518]}, "properties": {"diam_km": 3.002, "area_px": 2018}}, {"type": "Feature", "geometry": {"type": "Point", "coordinates": [357.95132, 8.44917]}, "properties": {"diam_km": 1.11, "area_px": 276}}, {"type": "Feature", "geometry": {"type": "Point", "coordinates": [354.74816, 8.43553]}, "properties": {"diam_km": 1.027, "area_px": 236}}, {"type": "Feature", "geometry": {"type": "Point", "coordinates": [355.10201, 8.41898]}, "properties": {"diam_km": 2.149, "area_px": 1034}}, {"type": "Feature", "geometry": {"type": "Point", "coordinates": [353.56195, 8.42653]}, "properties": {"diam_km": 1.39, "area_px": 433}}, {"type": "Feature", "geometry": {"type": "Point", "coordinates": [354.66086, 8.425]}, "properties": {"diam_km": 1.511, "area_px": 511}}, {"type": "Feature", "geometry": {"type": "Point", "coordinates": [356.25855, 8.40931]}, "properties": {"diam_km": 1.576, "area_px": 556}}, {"type": "Feature", "geometry": {"type": "Point", "coordinates": [356.8731, 8.39257]}, "properties": {"diam_km": 2.14, "area_px": 1026}}, {"type": "Feature", "geometry": {"type": "Point", "coordinates": [355.26642, 8.40897]}, "properties": {"diam_km": 1.259, "area_px": 355}}, {"type": "Feature", "geometry": {"type": "Point", "coordinates": [356.63118, 8.40727]}, "properties": {"diam_km": 1.175, "area_px": 309}}, {"type": "Feature", "geometry": {"type": "Point", "coordinates": [356.36099, 8.39606]}, "properties": {"diam_km": 1.321, "area_px": 391}}, {"type": "Feature", "geometry": {"type": "Point", "coordinates": [354.56448, 8.38545]}, "properties": {"diam_km": 1.485, "area_px": 494}}, {"type": "Feature", "geometry": {"type": "Point", "coordinates": [355.20207, 8.33455]}, "properties": {"diam_km": 3.409, "area_px": 2603}}, {"type": "Feature", "geometry": {"type": "Point", "coordinates": [356.20867, 8.37169]}, "properties": {"diam_km": 1.609, "area_px": 580}}, {"type": "Feature", "geometry": {"type": "Point", "coordinates": [355.6009, 8.33688]}, "properties": {"diam_km": 3.747, "area_px": 3145}}, {"type": "Feature", "geometry": {"type": "Point", "coordinates": [354.30544, 8.24146]}, "properties": {"diam_km": 6.423, "area_px": 9239}}, {"type": "Feature", "geometry": {"type": "Point", "coordinates": [355.31024, 8.36475]}, "properties": {"diam_km": 1.854, "area_px": 770}}, {"type": "Feature", "geometry": {"type": "Point", "coordinates": [354.52222, 8.35354]}, "properties": {"diam_km": 1.257, "area_px": 354}}, {"type": "Feature", "geometry": {"type": "Point", "coordinates": [357.42858, 8.34958]}, "properties": {"diam_km": 1.544, "area_px": 534}}, {"type": "Feature", "geometry": {"type": "Point", "coordinates": [355.75219, 8.33946]}, "properties": {"diam_km": 1.742, "area_px": 680}}, {"type": "Feature", "geometry": {"type": "Point", "coordinates": [354.75453, 8.33335]}, "properties": {"diam_km": 1.735, "area_px": 674}}, {"type": "Feature", "geometry": {"type": "Point", "coordinates": [354.83829, 8.29332]}, "properties": {"diam_km": 3.12, "area_px": 2180}}, {"type": "Feature", "geometry": {"type": "Point", "coordinates": [357.68404, 8.32928]}, "properties": {"diam_km": 1.287, "area_px": 371}}, {"type": "Feature", "geometry": {"type": "Point", "coordinates": [358.94573, 8.32906]}, "properties": {"diam_km": 1.421, "area_px": 452}}, {"type": "Feature", "geometry": {"type": "Point", "coordinates": [355.07688, 8.31582]}, "properties": {"diam_km": 1.278, "area_px": 366}}, {"type": "Feature", "geometry": {"type": "Point", "coordinates": [353.10759, 8.28724]}, "properties": {"diam_km": 1.576, "area_px": 556}}, {"type": "Feature", "geometry": {"type": "Point", "coordinates": [355.05858, 8.25125]}, "properties": {"diam_km": 3.014, "area_px": 2034}}, {"type": "Feature", "geometry": {"type": "Point", "coordinates": [357.32643, 8.26027]}, "properties": {"diam_km": 3.095, "area_px": 2145}}, {"type": "Feature", "geometry": {"type": "Point", "coordinates": [356.32665, 8.26165]}, "properties": {"diam_km": 1.534, "area_px": 527}}, {"type": "Feature", "geometry": {"type": "Point", "coordinates": [356.45432, 8.28043]}, "properties": {"diam_km": 1.071, "area_px": 257}}, {"type": "Feature", "geometry": {"type": "Point", "coordinates": [354.69413, 8.23264]}, "properties": {"diam_km": 3.766, "area_px": 3177}}, {"type": "Feature", "geometry": {"type": "Point", "coordinates": [356.25123, 8.26853]}, "properties": {"diam_km": 1.216, "area_px": 331}}, {"type": "Feature", "geometry": {"type": "Point", "coordinates": [357.76769, 8.24209]}, "properties": {"diam_km": 2.307, "area_px": 1192}}, {"type": "Feature", "geometry": {"type": "Point", "coordinates": [355.71024, 8.24723]}, "properties": {"diam_km": 1.754, "area_px": 689}}, {"type": "Feature", "geometry": {"type": "Point", "coordinates": [353.21209, 8.24041]}, "properties": {"diam_km": 2.225, "area_px": 1109}}, {"type": "Feature", "geometry": {"type": "Point", "coordinates": [356.75151, 8.25378]}, "properties": {"diam_km": 1.024, "area_px": 235}}, {"type": "Feature", "geometry": {"type": "Point", "coordinates": [358.95365, 8.24415]}, "properties": {"diam_km": 1.692, "area_px": 641}}, {"type": "Feature", "geometry": {"type": "Point", "coordinates": [355.64711, 8.16319]}, "properties": {"diam_km": 4.346, "area_px": 4231}}, {"type": "Feature", "geometry": {"type": "Point", "coordinates": [358.26775, 8.22094]}, "properties": {"diam_km": 1.161, "area_px": 302}}, {"type": "Feature", "geometry": {"type": "Point", "coordinates": [354.85301, 8.17584]}, "properties": {"diam_km": 2.977, "area_px": 1985}}, {"type": "Feature", "geometry": {"type": "Point", "coordinates": [353.05955, 8.19916]}, "properties": {"diam_km": 1.696, "area_px": 644}}, {"type": "Feature", "geometry": {"type": "Point", "coordinates": [356.38851, 8.16409]}, "properties": {"diam_km": 3.09, "area_px": 2138}}, {"type": "Feature", "geometry": {"type": "Point", "coordinates": [357.18735, 8.1849]}, "properties": {"diam_km": 1.732, "area_px": 672}}, {"type": "Feature", "geometry": {"type": "Point", "coordinates": [358.80927, 8.19607]}, "properties": {"diam_km": 1.073, "area_px": 258}}, {"type": "Feature", "geometry": {"type": "Point", "coordinates": [353.30249, 8.18263]}, "properties": {"diam_km": 1.773, "area_px": 704}}, {"type": "Feature", "geometry": {"type": "Point", "coordinates": [353.58908, 8.18501]}, "properties": {"diam_km": 1.373, "area_px": 422}}, {"type": "Feature", "geometry": {"type": "Point", "coordinates": [356.95241, 8.17205]}, "properties": {"diam_km": 1.566, "area_px": 549}}, {"type": "Feature", "geometry": {"type": "Point", "coordinates": [357.02356, 8.1717]}, "properties": {"diam_km": 1.462, "area_px": 479}}, {"type": "Feature", "geometry": {"type": "Point", "coordinates": [356.27319, 8.15695]}, "properties": {"diam_km": 1.946, "area_px": 848}}, {"type": "Feature", "geometry": {"type": "Point", "coordinates": [355.037, 8.11467]}, "properties": {"diam_km": 2.797, "area_px": 1752}}, {"type": "Feature", "geometry": {"type": "Point", "coordinates": [355.81408, 8.15451]}, "properties": {"diam_km": 1.206, "area_px": 326}}, {"type": "Feature", "geometry": {"type": "Point", "coordinates": [356.13656, 8.15277]}, "properties": {"diam_km": 1.43, "area_px": 458}}, {"type": "Feature", "geometry": {"type": "Point", "coordinates": [356.59641, 8.13596]}, "properties": {"diam_km": 2.097, "area_px": 985}}, {"type": "Feature", "geometry": {"type": "Point", "coordinates": [356.03881, 8.14441]}, "properties": {"diam_km": 1.061, "area_px": 252}}, {"type": "Feature", "geometry": {"type": "Point", "coordinates": [356.20878, 8.1321]}, "properties": {"diam_km": 1.561, "area_px": 546}}, {"type": "Feature", "geometry": {"type": "Point", "coordinates": [357.1149, 8.13408]}, "properties": {"diam_km": 1.518, "area_px": 516}}, {"type": "Feature", "geometry": {"type": "Point", "coordinates": [353.6377, 8.13568]}, "properties": {"diam_km": 1.031, "area_px": 238}}, {"type": "Feature", "geometry": {"type": "Point", "coordinates": [356.66535, 8.11788]}, "properties": {"diam_km": 1.208, "area_px": 327}}, {"type": "Feature", "geometry": {"type": "Point", "coordinates": [355.15313, 8.11107]}, "properties": {"diam_km": 1.511, "area_px": 511}}, {"type": "Feature", "geometry": {"type": "Point", "coordinates": [353.158, 8.10904]}, "properties": {"diam_km": 1.306, "area_px": 382}}, {"type": "Feature", "geometry": {"type": "Point", "coordinates": [356.09762, 8.08928]}, "properties": {"diam_km": 1.236, "area_px": 342}}, {"type": "Feature", "geometry": {"type": "Point", "coordinates": [358.80798, 8.07661]}, "properties": {"diam_km": 2.477, "area_px": 1374}}, {"type": "Feature", "geometry": {"type": "Point", "coordinates": [356.76923, 8.07294]}, "properties": {"diam_km": 1.238, "area_px": 343}}, {"type": "Feature", "geometry": {"type": "Point", "coordinates": [353.11916, 8.06657]}, "properties": {"diam_km": 1.188, "area_px": 316}}, {"type": "Feature", "geometry": {"type": "Point", "coordinates": [353.30305, 8.04853]}, "properties": {"diam_km": 1.559, "area_px": 544}}, {"type": "Feature", "geometry": {"type": "Point", "coordinates": [353.95636, 8.03067]}, "properties": {"diam_km": 2.03, "area_px": 923}}, {"type": "Feature", "geometry": {"type": "Point", "coordinates": [353.74285, 8.04477]}, "properties": {"diam_km": 1.011, "area_px": 229}}, {"type": "Feature", "geometry": {"type": "Point", "coordinates": [357.30821, 8.04244]}, "properties": {"diam_km": 1.039, "area_px": 242}}, {"type": "Feature", "geometry": {"type": "Point", "coordinates": [353.44788, 8.02484]}, "properties": {"diam_km": 1.022, "area_px": 234}}, {"type": "Feature", "geometry": {"type": "Point", "coordinates": [357.24173, 8.01964]}, "properties": {"diam_km": 1.379, "area_px": 426}}, {"type": "Feature", "geometry": {"type": "Point", "coordinates": [354.02534, 8.01973]}, "properties": {"diam_km": 1.084, "area_px": 263}}]}